placeName,placeTypeHint,lat,lng,plusCode,googleMapsUrl
<![CDATA[Aral Truck (auch für PKW => Button klicken)]]>,HVO_TANKSTELLE,48.684856,9.374177,,"https://www.google.com/maps/search/?api=1&query=48.6848558,9.3741767"
<![CDATA[Aral Truck (auch für PKW => Button klicken)]]>,HVO_TANKSTELLE,48.390243,11.064005,,"https://www.google.com/maps/search/?api=1&query=48.3902434,11.064005"
<![CDATA[Aral Truck (auch für PKW => Button klicken)]]>,HVO_TANKSTELLE,50.054505,11.622010,,"https://www.google.com/maps/search/?api=1&query=50.0545045,11.6220099"
<![CDATA[Aral Truck (auch für PKW => Button klicken)]]>,HVO_TANKSTELLE,50.862347,9.722831,,"https://www.google.com/maps/search/?api=1&query=50.8623475,9.7228309"
<![CDATA[Aral Truck (PKW  Infos => Icon klicken)]]>,HVO_TANKSTELLE,51.400234,12.190280,,"https://www.google.com/maps/search/?api=1&query=51.4002338,12.1902797"
<![CDATA[Aral Truck (PKW => Icon klicken)]]>,HVO_TANKSTELLE,49.258566,10.502211,,"https://www.google.com/maps/search/?api=1&query=49.2585659,10.5022112"
<![CDATA[Aral Truck (PKW Infos => Icon klicken)]]>,HVO_TANKSTELLE,51.683526,8.721146,,"https://www.google.com/maps/search/?api=1&query=51.6835255,8.7211456"
<![CDATA[Aral Truck (PKW Infos => Icons klicken)]]>,HVO_TANKSTELLE,49.672821,8.597635,,"https://www.google.com/maps/search/?api=1&query=49.6728208,8.5976347"
<![CDATA[BP Truck (PKW Infos => Icon klicken)]]>,HVO_TANKSTELLE,47.493632,14.483190,,"https://www.google.com/maps/search/?api=1&query=47.4936324,14.4831897"
<![CDATA[C&S Tankstelle (PKW und LKW)]]>,HVO_TANKSTELLE,50.708379,12.481475,,"https://www.google.com/maps/search/?api=1&query=50.7083794,12.4814749"
<![CDATA[C&S Tankstelle PKW und LKW]]>,HVO_TANKSTELLE,50.890886,11.861121,,"https://www.google.com/maps/search/?api=1&query=50.8908855,11.8611215"
<![CDATA[E. Leclerc ( PKW ) => click Icon to read]]>,HVO_TANKSTELLE,48.232220,7.404897,,"https://www.google.com/maps/search/?api=1&query=48.2322203,7.4048969"
<![CDATA[Fleming & Wendeln]]>,HVO_TANKSTELLE,52.947169,8.022694,,"https://www.google.com/maps/search/?api=1&query=52.9471692,8.022694"
<![CDATA[G&V Truck]]>,HVO_TANKSTELLE,50.943844,5.705356,,"https://www.google.com/maps/search/?api=1&query=50.9438438,5.7053562"
<![CDATA[Knies & Lagotka]]>,HVO_TANKSTELLE,50.978908,8.969424,,"https://www.google.com/maps/search/?api=1&query=50.9789082,8.9694244"
<![CDATA[Knies & Lagotka]]>,HVO_TANKSTELLE,50.749552,8.836174,,"https://www.google.com/maps/search/?api=1&query=50.749552,8.8361744"
<![CDATA[Knies&Kotka / Tankpool24]]>,HVO_TANKSTELLE,50.826252,8.773105,,"https://www.google.com/maps/search/?api=1&query=50.8262521,8.7731047"
<![CDATA[L-Port Tankstelle PKW (LKW mit kleinem Rüssel) => Hinweis lesen!]]>,HVO_TANKSTELLE,52.102981,8.196478,,"https://www.google.com/maps/search/?api=1&query=52.1029811,8.1964781"
<![CDATA[Mallasch & Uhlen (PKW + LKW) => Icon klicken]]>,HVO_TANKSTELLE,52.735990,7.782031,,"https://www.google.com/maps/search/?api=1&query=52.7359902,7.7820306"
<![CDATA[Masch & Uhlen / Aral / Pool-Tankstelle]]>,HVO_TANKSTELLE,52.668417,7.295555,,"https://www.google.com/maps/search/?api=1&query=52.6684174,7.295555"
"<![CDATA[Nordoel (Sonderstation, Klicken => Infos lesen!)]]>",HVO_TANKSTELLE,53.850601,10.675904,,"https://www.google.com/maps/search/?api=1&query=53.8506013,10.6759039"
<![CDATA[Pludra Tankstelle ( LKW + PKW ?) => Icon lesen]]>,HVO_TANKSTELLE,52.336633,7.252677,,"https://www.google.com/maps/search/?api=1&query=52.3366329,7.2526768"
<![CDATA[Rominger & Blaier (nur mit Kundenkarte)]]>,HVO_TANKSTELLE,48.208267,9.018410,,"https://www.google.com/maps/search/?api=1&query=48.2082675,9.01841"
<![CDATA[Schuster & Sohn]]>,HVO_TANKSTELLE,49.483253,7.680213,,"https://www.google.com/maps/search/?api=1&query=49.4832528,7.6802128"
<![CDATA[Schuster & Sohn]]>,HVO_TANKSTELLE,49.219817,7.593183,,"https://www.google.com/maps/search/?api=1&query=49.2198165,7.5931831"
<![CDATA[Tank & Wasch Held]]>,HVO_TANKSTELLE,49.785931,11.189584,,"https://www.google.com/maps/search/?api=1&query=49.7859312,11.1895841"
<![CDATA[Tankstelle tank & talk]]>,HVO_TANKSTELLE,48.070527,12.488734,,"https://www.google.com/maps/search/?api=1&query=48.0705274,12.4887335"
<![CDATA[Theile&Schürholz (PKW+LKW) Icon drücken!!]]>,HVO_TANKSTELLE,51.057190,7.767451,,"https://www.google.com/maps/search/?api=1&query=51.0571905,7.7674508"
<![CDATA[Total / Cirkle K (Bitte um Rückinfo! => Icon klicken)]]>,HVO_TANKSTELLE,49.564254,8.062431,,"https://www.google.com/maps/search/?api=1&query=49.5642539,8.0624307"
"<![CDATA[Wölfl (Truck & PKW, AS24)]]>",HVO_TANKSTELLE,48.307841,13.426036,,"https://www.google.com/maps/search/?api=1&query=48.307841,13.4260363"
Agrola,HVO_TANKSTELLE,47.560204,9.132327,,"https://www.google.com/maps/search/?api=1&query=47.5602038,9.1323272"
Agrola,HVO_TANKSTELLE,47.466944,8.993419,,"https://www.google.com/maps/search/?api=1&query=47.4669445,8.9934194"
Agrola,HVO_TANKSTELLE,47.177960,9.511774,,"https://www.google.com/maps/search/?api=1&query=47.1779597,9.5117736"
Agrola,HVO_TANKSTELLE,47.164875,9.478761,,"https://www.google.com/maps/search/?api=1&query=47.1648749,9.4787612"
Agrola,HVO_TANKSTELLE,47.409114,9.367809,,"https://www.google.com/maps/search/?api=1&query=47.4091144,9.3678092"
Agrola,HVO_TANKSTELLE,47.358434,9.444078,,"https://www.google.com/maps/search/?api=1&query=47.3584344,9.4440784"
Agrola,HVO_TANKSTELLE,47.473322,9.468267,,"https://www.google.com/maps/search/?api=1&query=47.4733216,9.4682666"
Agrola,HVO_TANKSTELLE,47.563483,7.826942,,"https://www.google.com/maps/search/?api=1&query=47.5634834,7.826942"
Agrola,HVO_TANKSTELLE,47.187472,8.861093,,"https://www.google.com/maps/search/?api=1&query=47.1874718,8.8610929"
Agrola,HVO_TANKSTELLE,47.478777,9.578785,,"https://www.google.com/maps/search/?api=1&query=47.4787773,9.578785"
Agrola / Landi,HVO_TANKSTELLE,47.267211,8.918425,,"https://www.google.com/maps/search/?api=1&query=47.2672114,8.9184251"
Agrola / LANDI,HVO_TANKSTELLE,47.274798,8.824963,,"https://www.google.com/maps/search/?api=1&query=47.2747979,8.8249631"
Agrola / LANDI,HVO_TANKSTELLE,47.195176,7.608810,,"https://www.google.com/maps/search/?api=1&query=47.1951756,7.6088097"
Agrola / LANDI,HVO_TANKSTELLE,47.183258,7.980889,,"https://www.google.com/maps/search/?api=1&query=47.1832583,7.9808889"
Agrola / Laveba (ab 29.12.2025),HVO_TANKSTELLE,47.150223,9.030573,,"https://www.google.com/maps/search/?api=1&query=47.1502233,9.0305728"
AGROLA / TRAVECO Transporte AG ( PKW + LKW ),HVO_TANKSTELLE,47.528101,8.704682,,"https://www.google.com/maps/search/?api=1&query=47.5281005,8.7046819"
AGROLA / TRAVECO Transporte AG ( PKW + LKW ),HVO_TANKSTELLE,47.175669,8.102763,,"https://www.google.com/maps/search/?api=1&query=47.1756687,8.1027629"
AGROLA / TRAVECO Transporte AG ( PKW + LKW ),HVO_TANKSTELLE,47.308409,7.777557,,"https://www.google.com/maps/search/?api=1&query=47.3084087,7.777557"
Agros,HVO_TANKSTELLE,52.127640,5.755381,,"https://www.google.com/maps/search/?api=1&query=52.1276397,5.7553808"
Agros,HVO_TANKSTELLE,52.154732,6.200996,,"https://www.google.com/maps/search/?api=1&query=52.1547318,6.200996"
Agros,HVO_TANKSTELLE,52.259943,6.283848,,"https://www.google.com/maps/search/?api=1&query=52.2599433,6.2838478"
Agros,HVO_TANKSTELLE,51.931509,6.592671,,"https://www.google.com/maps/search/?api=1&query=51.9315088,6.5926706"
Agros,HVO_TANKSTELLE,53.114047,6.107729,,"https://www.google.com/maps/search/?api=1&query=53.1140472,6.1077291"
Agros,HVO_TANKSTELLE,52.153439,6.714517,,"https://www.google.com/maps/search/?api=1&query=52.1534386,6.7145168"
Agros,HVO_TANKSTELLE,52.122408,5.563676,,"https://www.google.com/maps/search/?api=1&query=52.122408,5.563676"
Agros,HVO_TANKSTELLE,53.176156,6.733654,,"https://www.google.com/maps/search/?api=1&query=53.176156,6.7336538"
Agros,HVO_TANKSTELLE,51.462353,5.633018,,"https://www.google.com/maps/search/?api=1&query=51.4623526,5.6330177"
Agros,HVO_TANKSTELLE,51.499292,5.728031,,"https://www.google.com/maps/search/?api=1&query=51.4992921,5.7280312"
Agros,HVO_TANKSTELLE,52.234840,7.003513,,"https://www.google.com/maps/search/?api=1&query=52.2348398,7.0035126"
Agros,HVO_TANKSTELLE,53.240176,5.898003,,"https://www.google.com/maps/search/?api=1&query=53.2401757,5.8980029"
Agros,HVO_TANKSTELLE,52.297679,6.576810,,"https://www.google.com/maps/search/?api=1&query=52.2976785,6.5768102"
Agros,HVO_TANKSTELLE,52.094218,6.650750,,"https://www.google.com/maps/search/?api=1&query=52.0942176,6.6507497"
Agros,HVO_TANKSTELLE,52.848064,6.342321,,"https://www.google.com/maps/search/?api=1&query=52.8480639,6.342321"
Agros,HVO_TANKSTELLE,52.711221,6.517211,,"https://www.google.com/maps/search/?api=1&query=52.711221,6.5172112"
Agros,HVO_TANKSTELLE,53.191731,5.764890,,"https://www.google.com/maps/search/?api=1&query=53.1917312,5.7648903"
Agros,HVO_TANKSTELLE,53.160848,6.996783,,"https://www.google.com/maps/search/?api=1&query=53.1608477,6.9967825"
Agros,HVO_TANKSTELLE,53.030957,5.650044,,"https://www.google.com/maps/search/?api=1&query=53.0309571,5.6500438"
Agros,HVO_TANKSTELLE,51.997406,6.352597,,"https://www.google.com/maps/search/?api=1&query=51.9974062,6.3525971"
Agros,HVO_TANKSTELLE,52.263874,5.582224,,"https://www.google.com/maps/search/?api=1&query=52.2638741,5.5822241"
Agros,HVO_TANKSTELLE,52.781369,6.904441,,"https://www.google.com/maps/search/?api=1&query=52.7813694,6.9044414"
Agros,HVO_TANKSTELLE,52.594218,6.092253,,"https://www.google.com/maps/search/?api=1&query=52.5942181,6.0922535"
Agros,HVO_TANKSTELLE,52.730761,6.503814,,"https://www.google.com/maps/search/?api=1&query=52.7307607,6.5038141"
Agros,HVO_TANKSTELLE,52.731163,6.475832,,"https://www.google.com/maps/search/?api=1&query=52.7311628,6.475832"
Agros,HVO_TANKSTELLE,52.336433,5.529922,,"https://www.google.com/maps/search/?api=1&query=52.3364333,5.5299219"
Agros,HVO_TANKSTELLE,51.344252,6.191495,,"https://www.google.com/maps/search/?api=1&query=51.3442523,6.1914947"
Agros / Texaco,HVO_TANKSTELLE,52.295029,6.878711,,"https://www.google.com/maps/search/?api=1&query=52.2950285,6.878711"
André König - Tankstelle,HVO_TANKSTELLE,47.065003,7.294198,,"https://www.google.com/maps/search/?api=1&query=47.0650032,7.2941982"
Anton Willer,HVO_TANKSTELLE,54.332980,10.113960,,"https://www.google.com/maps/search/?api=1&query=54.3329797,10.1139601"
AP Tankstelle,HVO_TANKSTELLE,47.748283,13.067890,,"https://www.google.com/maps/search/?api=1&query=47.7482826,13.06789"
AP Tankstelle Truck (Icon klicken!),HVO_TANKSTELLE,47.733295,13.085591,,"https://www.google.com/maps/search/?api=1&query=47.7332952,13.0855908"
AP Trading,HVO_TANKSTELLE,47.864038,13.016099,,"https://www.google.com/maps/search/?api=1&query=47.864038,13.0160992"
AP Trading,HVO_TANKSTELLE,47.362133,13.383478,,"https://www.google.com/maps/search/?api=1&query=47.3621333,13.3834778"
AP Trading ( LKW + PKW ?),HVO_TANKSTELLE,48.189041,15.406180,,"https://www.google.com/maps/search/?api=1&query=48.1890409,15.4061801"
AP Truck (und ältere PKW oder mit Trichter),HVO_TANKSTELLE,47.566032,12.155988,,"https://www.google.com/maps/search/?api=1&query=47.5660315,12.1559882"
Aral,HVO_TANKSTELLE,50.190248,8.742524,,"https://www.google.com/maps/search/?api=1&query=50.1902481,8.7425239"
Aral ( LKW / PKW ),HVO_TANKSTELLE,48.244071,10.372535,,"https://www.google.com/maps/search/?api=1&query=48.2440707,10.3725355"
Aral ( LKW + PKW? ),HVO_TANKSTELLE,53.803591,9.938762,,"https://www.google.com/maps/search/?api=1&query=53.8035909,9.9387623"
Aral ( PKW + LKW ),HVO_TANKSTELLE,54.657115,9.945511,,"https://www.google.com/maps/search/?api=1&query=54.6571148,9.9455111"
Aral ( PKW? / LKW ),HVO_TANKSTELLE,51.453286,6.740314,,"https://www.google.com/maps/search/?api=1&query=51.4532857,6.7403142"
ARAL (LKW + ältere PKW oder Trichter),HVO_TANKSTELLE,51.731188,9.973050,,"https://www.google.com/maps/search/?api=1&query=51.7311877,9.9730496"
Aral (PKW + LKW),HVO_TANKSTELLE,48.137945,11.711336,,"https://www.google.com/maps/search/?api=1&query=48.1379452,11.7113356"
Aral / Joiss Truck ( und ältere PKW ),HVO_TANKSTELLE,52.685600,8.782794,,"https://www.google.com/maps/search/?api=1&query=52.6855995,8.7827941"
Aral LKW,HVO_TANKSTELLE,51.676563,7.775496,,"https://www.google.com/maps/search/?api=1&query=51.6765631,7.7754957"
"Aral LKW (sowie ältere PKW, neuere mit Trichter)",HVO_TANKSTELLE,49.550157,8.449386,,"https://www.google.com/maps/search/?api=1&query=49.5501573,8.4493862"
Aral Truck,HVO_TANKSTELLE,53.087708,8.711720,,"https://www.google.com/maps/search/?api=1&query=53.0877076,8.7117196"
Aral Truck,HVO_TANKSTELLE,51.529202,7.527771,,"https://www.google.com/maps/search/?api=1&query=51.5292018,7.5277708"
Aral Truck (+ ältere PKW),HVO_TANKSTELLE,50.885650,10.931722,,"https://www.google.com/maps/search/?api=1&query=50.8856496,10.9317221"
Aral Truck (neuere PKW mit Trichter),HVO_TANKSTELLE,51.295287,13.730147,,"https://www.google.com/maps/search/?api=1&query=51.2952867,13.7301473"
"Aral Truck (PKW-Infos, Icon klicken)",HVO_TANKSTELLE,53.489783,10.114380,,"https://www.google.com/maps/search/?api=1&query=53.4897827,10.1143798"
Aral Truck (PKW?),HVO_TANKSTELLE,51.270931,9.517430,,"https://www.google.com/maps/search/?api=1&query=51.2709307,9.5174297"
Aral Truck (PKW?),HVO_TANKSTELLE,51.242114,9.438237,,"https://www.google.com/maps/search/?api=1&query=51.2421141,9.4382368"
Aral Truck (PKW?),HVO_TANKSTELLE,50.982477,6.919592,,"https://www.google.com/maps/search/?api=1&query=50.982477,6.9195921"
Aral Truck (PKW?),HVO_TANKSTELLE,48.742667,11.473753,,"https://www.google.com/maps/search/?api=1&query=48.7426666,11.4737526"
Aral Truck (PKW?),HVO_TANKSTELLE,49.991045,8.313846,,"https://www.google.com/maps/search/?api=1&query=49.9910446,8.3138459"
Aral Truck (PKW?),HVO_TANKSTELLE,49.293924,8.477462,,"https://www.google.com/maps/search/?api=1&query=49.2939244,8.4774622"
Aral Truck (PKW?),HVO_TANKSTELLE,50.749756,6.850807,,"https://www.google.com/maps/search/?api=1&query=50.7497558,6.8508072"
Aral Truck (PKW?),HVO_TANKSTELLE,50.884635,6.906884,,"https://www.google.com/maps/search/?api=1&query=50.8846352,6.9068835"
Aral Truck (PKW?),HVO_TANKSTELLE,52.146779,7.736304,,"https://www.google.com/maps/search/?api=1&query=52.1467793,7.736304"
Aral Truck (PKW?),HVO_TANKSTELLE,52.491670,8.079157,,"https://www.google.com/maps/search/?api=1&query=52.4916696,8.0791571"
Aral Truck (PKW?),HVO_TANKSTELLE,49.567099,11.327283,,"https://www.google.com/maps/search/?api=1&query=49.5670988,11.3272831"
Aral Truck (PKW?),HVO_TANKSTELLE,50.021487,10.216501,,"https://www.google.com/maps/search/?api=1&query=50.0214874,10.2165007"
Aral Truck (PKW?),HVO_TANKSTELLE,52.314677,13.663331,,"https://www.google.com/maps/search/?api=1&query=52.3146772,13.6633312"
Aral Truck (PKW?),HVO_TANKSTELLE,49.157275,11.041125,,"https://www.google.com/maps/search/?api=1&query=49.1572751,11.041125"
Aral Truck (und ältere PKW oder mit Trichter ),HVO_TANKSTELLE,50.648458,7.334570,,"https://www.google.com/maps/search/?api=1&query=50.6484581,7.3345705"
ARAL Truck / PKW(?) (Icon klicken!),HVO_TANKSTELLE,51.500011,6.981380,,"https://www.google.com/maps/search/?api=1&query=51.5000112,6.9813802"
Aral Truck + ältere PKW (neuere mit Trichter),HVO_TANKSTELLE,49.746175,10.633616,,"https://www.google.com/maps/search/?api=1&query=49.7461745,10.6336162"
Aral Truck + ältere PKW mit Trichter ( neuere PKW?),HVO_TANKSTELLE,49.778239,10.065926,,"https://www.google.com/maps/search/?api=1&query=49.7782388,10.0659263"
Aral Truck + ältere PKW mit Trichter ( neuere PKW?),HVO_TANKSTELLE,51.597969,8.515496,,"https://www.google.com/maps/search/?api=1&query=51.5979692,8.515496"
Aral Truck und ältere PKW (neuere PKW mit Adapter),HVO_TANKSTELLE,51.177585,12.010615,,"https://www.google.com/maps/search/?api=1&query=51.177585,12.0106146"
Aral Truck und PKW,HVO_TANKSTELLE,48.386475,10.035808,,"https://www.google.com/maps/search/?api=1&query=48.3864748,10.0358085"
AS24 Truck,HVO_TANKSTELLE,49.703497,5.627273,,"https://www.google.com/maps/search/?api=1&query=49.7034972,5.6272726"
AS24 Truck,HVO_TANKSTELLE,48.771234,7.243149,,"https://www.google.com/maps/search/?api=1&query=48.7712342,7.2431492"
AS24 Truck,HVO_TANKSTELLE,48.615534,6.184105,,"https://www.google.com/maps/search/?api=1&query=48.6155341,6.1841051"
Autocenter Auer,HVO_TANKSTELLE,47.962784,12.610853,,"https://www.google.com/maps/search/?api=1&query=47.9627836,12.6108532"
Autohaus Schlick,HVO_TANKSTELLE,49.473162,7.063410,,"https://www.google.com/maps/search/?api=1&query=49.4731622,7.0634099"
Autohof Freienbrink PKW + LKW,HVO_TANKSTELLE,52.386035,13.800653,,"https://www.google.com/maps/search/?api=1&query=52.386035,13.8006528"
Avia,HVO_TANKSTELLE,47.360377,10.190702,,"https://www.google.com/maps/search/?api=1&query=47.3603765,10.190702"
AVIA,HVO_TANKSTELLE,48.761073,14.990288,,"https://www.google.com/maps/search/?api=1&query=48.7610734,14.9902875"
AVIA,HVO_TANKSTELLE,48.602413,15.186471,,"https://www.google.com/maps/search/?api=1&query=48.6024128,15.1864713"
AVIA,HVO_TANKSTELLE,48.228163,15.677044,,"https://www.google.com/maps/search/?api=1&query=48.2281633,15.6770445"
AVIA,HVO_TANKSTELLE,48.280207,14.376340,,"https://www.google.com/maps/search/?api=1&query=48.2802066,14.37634"
AVIA,HVO_TANKSTELLE,49.285379,9.679090,,"https://www.google.com/maps/search/?api=1&query=49.2853795,9.6790903"
AVIA,HVO_TANKSTELLE,47.842671,9.002930,,"https://www.google.com/maps/search/?api=1&query=47.8426714,9.0029298"
AVIA,HVO_TANKSTELLE,47.803613,10.300143,,"https://www.google.com/maps/search/?api=1&query=47.8036134,10.3001431"
AVIA,HVO_TANKSTELLE,48.113803,11.616934,,"https://www.google.com/maps/search/?api=1&query=48.1138034,11.6169335"
AVIA,HVO_TANKSTELLE,47.389011,11.785828,,"https://www.google.com/maps/search/?api=1&query=47.3890111,11.7858283"
AVIA,HVO_TANKSTELLE,52.290876,15.650454,,"https://www.google.com/maps/search/?api=1&query=52.2908762,15.650454"
AVIA,HVO_TANKSTELLE,50.295193,8.568378,,"https://www.google.com/maps/search/?api=1&query=50.2951926,8.568378"
AVIA,HVO_TANKSTELLE,48.841074,9.231265,,"https://www.google.com/maps/search/?api=1&query=48.841074,9.2312649"
AVIA,HVO_TANKSTELLE,48.805043,8.444797,,"https://www.google.com/maps/search/?api=1&query=48.8050427,8.4447966"
AVIA,HVO_TANKSTELLE,48.818690,15.276930,,"https://www.google.com/maps/search/?api=1&query=48.8186901,15.2769296"
AVIA,HVO_TANKSTELLE,49.212829,9.585517,,"https://www.google.com/maps/search/?api=1&query=49.2128285,9.5855169"
AVIA,HVO_TANKSTELLE,50.002500,10.112818,,"https://www.google.com/maps/search/?api=1&query=50.0025,10.1128178"
AVIA,HVO_TANKSTELLE,49.894868,10.922920,,"https://www.google.com/maps/search/?api=1&query=49.8948683,10.9229204"
AVIA,HVO_TANKSTELLE,49.019993,10.951135,,"https://www.google.com/maps/search/?api=1&query=49.019993,10.9511347"
AVIA,HVO_TANKSTELLE,48.032586,11.584710,,"https://www.google.com/maps/search/?api=1&query=48.0325862,11.5847098"
AVIA,HVO_TANKSTELLE,51.125744,11.427375,,"https://www.google.com/maps/search/?api=1&query=51.1257442,11.4273747"
AVIA,HVO_TANKSTELLE,48.927456,10.964577,,"https://www.google.com/maps/search/?api=1&query=48.9274562,10.9645768"
AVIA,HVO_TANKSTELLE,50.402377,10.004797,,"https://www.google.com/maps/search/?api=1&query=50.4023769,10.0047973"
AVIA,HVO_TANKSTELLE,48.996096,11.210374,,"https://www.google.com/maps/search/?api=1&query=48.9960963,11.2103736"
AVIA,HVO_TANKSTELLE,50.564748,8.477783,,"https://www.google.com/maps/search/?api=1&query=50.5647475,8.4777827"
AVIA,HVO_TANKSTELLE,50.540460,9.699883,,"https://www.google.com/maps/search/?api=1&query=50.5404601,9.6998828"
AVIA,HVO_TANKSTELLE,49.003059,12.123243,,"https://www.google.com/maps/search/?api=1&query=49.0030592,12.1232429"
AVIA,HVO_TANKSTELLE,48.944670,9.139199,,"https://www.google.com/maps/search/?api=1&query=48.9446695,9.139199"
AVIA,HVO_TANKSTELLE,48.754980,10.328236,,"https://www.google.com/maps/search/?api=1&query=48.7549796,10.328236"
AVIA,HVO_TANKSTELLE,53.093386,8.079697,,"https://www.google.com/maps/search/?api=1&query=53.0933863,8.0796972"
AVIA,HVO_TANKSTELLE,51.417775,5.562062,,"https://www.google.com/maps/search/?api=1&query=51.4177754,5.5620615"
AVIA,HVO_TANKSTELLE,51.479248,5.550296,,"https://www.google.com/maps/search/?api=1&query=51.4792484,5.5502963"
AVIA,HVO_TANKSTELLE,51.625261,5.507497,,"https://www.google.com/maps/search/?api=1&query=51.6252609,5.507497"
AVIA,HVO_TANKSTELLE,51.175943,5.837371,,"https://www.google.com/maps/search/?api=1&query=51.175943,5.8373709"
AVIA,HVO_TANKSTELLE,51.138387,5.895360,,"https://www.google.com/maps/search/?api=1&query=51.1383867,5.89536"
AVIA,HVO_TANKSTELLE,51.025135,5.854804,,"https://www.google.com/maps/search/?api=1&query=51.0251348,5.854804"
AVIA,HVO_TANKSTELLE,50.990982,5.869236,,"https://www.google.com/maps/search/?api=1&query=50.9909823,5.8692357"
AVIA,HVO_TANKSTELLE,51.538335,6.084658,,"https://www.google.com/maps/search/?api=1&query=51.5383351,6.0846576"
AVIA,HVO_TANKSTELLE,51.578868,5.768899,,"https://www.google.com/maps/search/?api=1&query=51.5788678,5.7688986"
AVIA,HVO_TANKSTELLE,51.817860,5.841553,,"https://www.google.com/maps/search/?api=1&query=51.81786,5.8415527"
AVIA,HVO_TANKSTELLE,53.096447,6.135099,,"https://www.google.com/maps/search/?api=1&query=53.0964471,6.1350989"
AVIA,HVO_TANKSTELLE,53.188205,6.372460,,"https://www.google.com/maps/search/?api=1&query=53.188205,6.37246"
AVIA,HVO_TANKSTELLE,53.167093,6.496515,,"https://www.google.com/maps/search/?api=1&query=53.1670926,6.4965154"
AVIA,HVO_TANKSTELLE,53.288957,6.599851,,"https://www.google.com/maps/search/?api=1&query=53.288957,6.5998509"
AVIA,HVO_TANKSTELLE,53.168831,6.751122,,"https://www.google.com/maps/search/?api=1&query=53.168831,6.7511216"
AVIA,HVO_TANKSTELLE,52.437399,6.334899,,"https://www.google.com/maps/search/?api=1&query=52.4373987,6.3348987"
AVIA,HVO_TANKSTELLE,52.249936,6.177956,,"https://www.google.com/maps/search/?api=1&query=52.2499363,6.177956"
AVIA,HVO_TANKSTELLE,48.806924,8.942333,,"https://www.google.com/maps/search/?api=1&query=48.8069237,8.9423326"
AVIA,HVO_TANKSTELLE,48.294468,10.548380,,"https://www.google.com/maps/search/?api=1&query=48.2944683,10.5483802"
AVIA,HVO_TANKSTELLE,48.187017,11.535201,,"https://www.google.com/maps/search/?api=1&query=48.1870174,11.5352007"
AVIA,HVO_TANKSTELLE,47.653055,9.178801,,"https://www.google.com/maps/search/?api=1&query=47.6530553,9.1788011"
AVIA,HVO_TANKSTELLE,49.822072,9.260295,,"https://www.google.com/maps/search/?api=1&query=49.8220717,9.2602949"
AVIA,HVO_TANKSTELLE,50.589330,10.411567,,"https://www.google.com/maps/search/?api=1&query=50.5893298,10.4115672"
AVIA,HVO_TANKSTELLE,52.290852,6.929906,,"https://www.google.com/maps/search/?api=1&query=52.2908516,6.9299064"
AVIA,HVO_TANKSTELLE,52.171075,6.741258,,"https://www.google.com/maps/search/?api=1&query=52.1710754,6.7412583"
AVIA,HVO_TANKSTELLE,52.241790,6.771996,,"https://www.google.com/maps/search/?api=1&query=52.2417899,6.7719955"
AVIA,HVO_TANKSTELLE,52.199240,6.642531,,"https://www.google.com/maps/search/?api=1&query=52.1992399,6.6425313"
AVIA,HVO_TANKSTELLE,51.940043,6.081836,,"https://www.google.com/maps/search/?api=1&query=51.9400429,6.0818358"
AVIA,HVO_TANKSTELLE,52.371524,6.641492,,"https://www.google.com/maps/search/?api=1&query=52.3715245,6.6414922"
AVIA,HVO_TANKSTELLE,51.964035,6.711250,,"https://www.google.com/maps/search/?api=1&query=51.9640346,6.7112498"
AVIA,HVO_TANKSTELLE,52.295745,6.754634,,"https://www.google.com/maps/search/?api=1&query=52.295745,6.7546337"
AVIA,HVO_TANKSTELLE,52.755381,6.916219,,"https://www.google.com/maps/search/?api=1&query=52.7553812,6.9162185"
AVIA,HVO_TANKSTELLE,50.031263,10.518258,,"https://www.google.com/maps/search/?api=1&query=50.0312628,10.5182584"
AVIA,HVO_TANKSTELLE,48.942775,10.915209,,"https://www.google.com/maps/search/?api=1&query=48.9427746,10.9152094"
AVIA,HVO_TANKSTELLE,49.110376,12.119909,,"https://www.google.com/maps/search/?api=1&query=49.1103759,12.1199088"
AVIA,HVO_TANKSTELLE,49.503592,11.285318,,"https://www.google.com/maps/search/?api=1&query=49.503592,11.2853176"
AVIA,HVO_TANKSTELLE,48.593763,9.236834,,"https://www.google.com/maps/search/?api=1&query=48.5937634,9.2368338"
AVIA,HVO_TANKSTELLE,50.155489,8.601527,,"https://www.google.com/maps/search/?api=1&query=50.1554886,8.6015271"
AVIA,HVO_TANKSTELLE,48.493583,9.163603,,"https://www.google.com/maps/search/?api=1&query=48.4935827,9.1636031"
AVIA,HVO_TANKSTELLE,49.525447,9.328552,,"https://www.google.com/maps/search/?api=1&query=49.5254473,9.3285524"
AVIA,HVO_TANKSTELLE,48.144902,11.639639,,"https://www.google.com/maps/search/?api=1&query=48.1449018,11.6396387"
AVIA,HVO_TANKSTELLE,50.996248,10.354828,,"https://www.google.com/maps/search/?api=1&query=50.9962475,10.3548275"
AVIA,HVO_TANKSTELLE,50.904461,10.559001,,"https://www.google.com/maps/search/?api=1&query=50.9044609,10.5590012"
AVIA,HVO_TANKSTELLE,48.783224,9.797481,,"https://www.google.com/maps/search/?api=1&query=48.7832236,9.7974805"
AVIA,HVO_TANKSTELLE,52.244938,5.754127,,"https://www.google.com/maps/search/?api=1&query=52.2449384,5.754127"
AVIA,HVO_TANKSTELLE,52.158233,6.413784,,"https://www.google.com/maps/search/?api=1&query=52.1582334,6.4137841"
AVIA,HVO_TANKSTELLE,52.278640,6.430396,,"https://www.google.com/maps/search/?api=1&query=52.2786399,6.4303962"
AVIA,HVO_TANKSTELLE,52.380860,6.609714,,"https://www.google.com/maps/search/?api=1&query=52.3808599,6.609714"
AVIA,HVO_TANKSTELLE,52.223178,6.837890,,"https://www.google.com/maps/search/?api=1&query=52.223178,6.8378895"
AVIA,HVO_TANKSTELLE,52.280946,6.850811,,"https://www.google.com/maps/search/?api=1&query=52.2809455,6.8508115"
AVIA,HVO_TANKSTELLE,53.007788,6.582266,,"https://www.google.com/maps/search/?api=1&query=53.007788,6.5822656"
AVIA,HVO_TANKSTELLE,53.722401,10.269020,,"https://www.google.com/maps/search/?api=1&query=53.7224008,10.2690203"
AVIA ( PKW + LKW ),HVO_TANKSTELLE,47.836239,10.640263,,"https://www.google.com/maps/search/?api=1&query=47.8362394,10.6402634"
AVIA ( PKW + LKW ),HVO_TANKSTELLE,52.566645,6.621853,,"https://www.google.com/maps/search/?api=1&query=52.5666453,6.6218528"
AVIA (ACHTUNG! Eventuell noch nicht freigeschaltet! Icon klicken!),HVO_TANKSTELLE,49.054484,8.744764,,"https://www.google.com/maps/search/?api=1&query=49.0544842,8.7447638"
AVIA (Hinweis lesen!),HVO_TANKSTELLE,54.365253,11.002358,,"https://www.google.com/maps/search/?api=1&query=54.3652526,11.0023582"
AVIA (LKW / PKW?),HVO_TANKSTELLE,47.994082,7.379421,,"https://www.google.com/maps/search/?api=1&query=47.9940821,7.3794208"
"AVIA (LKW und ältere PKW, Icon klicken)",HVO_TANKSTELLE,53.335484,13.060867,,"https://www.google.com/maps/search/?api=1&query=53.3354836,13.0608667"
AVIA (PKW + LKW ),HVO_TANKSTELLE,53.322004,6.935503,,"https://www.google.com/maps/search/?api=1&query=53.3220044,6.9355032"
AVIA (PKW und LKW),HVO_TANKSTELLE,53.539667,10.058919,,"https://www.google.com/maps/search/?api=1&query=53.5396667,10.0589188"
AVIA (PKW),HVO_TANKSTELLE,47.930963,14.085816,,"https://www.google.com/maps/search/?api=1&query=47.9309626,14.0858164"
AVIA für LKW / PKW?,HVO_TANKSTELLE,51.247174,15.485015,,"https://www.google.com/maps/search/?api=1&query=51.2471742,15.485015"
AVIA PKW,HVO_TANKSTELLE,48.212330,13.482977,,"https://www.google.com/maps/search/?api=1&query=48.2123304,13.4829773"
AVIA PKW und LKW,HVO_TANKSTELLE,49.264640,11.457987,,"https://www.google.com/maps/search/?api=1&query=49.2646404,11.4579873"
Avia Truck,HVO_TANKSTELLE,52.230791,6.836942,,"https://www.google.com/maps/search/?api=1&query=52.2307909,6.8369423"
AVIA Truck,HVO_TANKSTELLE,52.293613,6.558189,,"https://www.google.com/maps/search/?api=1&query=52.2936131,6.5581892"
AVIA Truck,HVO_TANKSTELLE,50.875102,5.718943,,"https://www.google.com/maps/search/?api=1&query=50.8751023,5.7189429"
AVIA Truck,HVO_TANKSTELLE,51.407167,6.128604,,"https://www.google.com/maps/search/?api=1&query=51.4071672,6.1286038"
"AVIA Wankmüller, Tankpool24",HVO_TANKSTELLE,48.631403,8.898200,,"https://www.google.com/maps/search/?api=1&query=48.6314027,8.8981995"
AVIA XPress,HVO_TANKSTELLE,48.405444,15.654735,,"https://www.google.com/maps/search/?api=1&query=48.4054443,15.6547354"
AVIA XPress (für PKW und Kleintransporter),HVO_TANKSTELLE,48.013300,15.156889,,"https://www.google.com/maps/search/?api=1&query=48.0132995,15.1568888"
Bavaria Petrol,HVO_TANKSTELLE,48.761283,11.440320,,"https://www.google.com/maps/search/?api=1&query=48.7612825,11.4403203"
Bavaria Petrol,HVO_TANKSTELLE,48.103095,11.533384,,"https://www.google.com/maps/search/?api=1&query=48.1030952,11.5333843"
Bavaria Petrol,HVO_TANKSTELLE,48.043032,11.664396,,"https://www.google.com/maps/search/?api=1&query=48.043032,11.664396"
Bavaria Petrol,HVO_TANKSTELLE,52.501751,13.294564,,"https://www.google.com/maps/search/?api=1&query=52.5017506,13.2945638"
Bavaria Tankstelle,HVO_TANKSTELLE,48.141411,11.413771,,"https://www.google.com/maps/search/?api=1&query=48.141411,11.4137706"
Baywa,HVO_TANKSTELLE,48.864254,10.518801,,"https://www.google.com/maps/search/?api=1&query=48.8642544,10.5188006"
BayWa,HVO_TANKSTELLE,47.462936,9.727609,,"https://www.google.com/maps/search/?api=1&query=47.4629365,9.7276094"
BayWa,HVO_TANKSTELLE,48.427886,11.581216,,"https://www.google.com/maps/search/?api=1&query=48.4278857,11.5812161"
BayWa,HVO_TANKSTELLE,48.392008,10.936853,,"https://www.google.com/maps/search/?api=1&query=48.3920077,10.9368533"
Baywa ( LKW + PKW ),HVO_TANKSTELLE,48.178273,11.230954,,"https://www.google.com/maps/search/?api=1&query=48.1782733,11.2309539"
Baywa ( PKW u LKW),HVO_TANKSTELLE,48.312052,11.641730,,"https://www.google.com/maps/search/?api=1&query=48.312052,11.6417303"
"BayWa (Info, Icon klicken)",HVO_TANKSTELLE,48.694968,10.923595,,"https://www.google.com/maps/search/?api=1&query=48.6949678,10.9235949"
BayWa PKW und LKW,HVO_TANKSTELLE,49.242374,12.299930,,"https://www.google.com/maps/search/?api=1&query=49.2423739,12.2999297"
BayWa PKW und LKW,HVO_TANKSTELLE,50.280340,10.951208,,"https://www.google.com/maps/search/?api=1&query=50.2803396,10.9512077"
BayWa PKW und LKW,HVO_TANKSTELLE,49.122485,10.754658,,"https://www.google.com/maps/search/?api=1&query=49.122485,10.7546578"
BayWa PKW und LKW,HVO_TANKSTELLE,49.539775,10.243974,,"https://www.google.com/maps/search/?api=1&query=49.5397751,10.2439743"
Behrenswert PKW und LKW,HVO_TANKSTELLE,52.135548,8.116649,,"https://www.google.com/maps/search/?api=1&query=52.135548,8.1166491"
Benzin Kontor,HVO_TANKSTELLE,48.822271,12.948138,,"https://www.google.com/maps/search/?api=1&query=48.8222712,12.948138"
Benzin Kontor,HVO_TANKSTELLE,47.947359,10.289477,,"https://www.google.com/maps/search/?api=1&query=47.9473586,10.2894767"
Benzin Kontor (BK),HVO_TANKSTELLE,48.132954,11.580967,,"https://www.google.com/maps/search/?api=1&query=48.132954,11.5809672"
Benzin Kontor (BK),HVO_TANKSTELLE,48.139468,11.359939,,"https://www.google.com/maps/search/?api=1&query=48.1394679,11.3599392"
Benzin Kontor (BK),HVO_TANKSTELLE,48.075582,11.249761,,"https://www.google.com/maps/search/?api=1&query=48.0755824,11.2497615"
Benzin Kontor (BK),HVO_TANKSTELLE,48.217702,11.799773,,"https://www.google.com/maps/search/?api=1&query=48.2177022,11.7997727"
Benzin Kontor (BK),HVO_TANKSTELLE,48.023168,11.810993,,"https://www.google.com/maps/search/?api=1&query=48.0231684,11.8109934"
Benzin Kontor (BK),HVO_TANKSTELLE,48.768457,11.543081,,"https://www.google.com/maps/search/?api=1&query=48.7684567,11.5430815"
Benzin Kontor (BK),HVO_TANKSTELLE,48.355810,10.955539,,"https://www.google.com/maps/search/?api=1&query=48.3558103,10.9555393"
Benzin Kontor (BK),HVO_TANKSTELLE,48.217302,11.260637,,"https://www.google.com/maps/search/?api=1&query=48.217302,11.2606371"
Benzin Kontor (BK),HVO_TANKSTELLE,47.627896,12.996024,,"https://www.google.com/maps/search/?api=1&query=47.6278959,12.9960244"
Benzin Kontor (BK),HVO_TANKSTELLE,48.048498,10.882887,,"https://www.google.com/maps/search/?api=1&query=48.0484982,10.882887"
Benzin Kontor (BK),HVO_TANKSTELLE,48.262130,10.984834,,"https://www.google.com/maps/search/?api=1&query=48.2621297,10.9848343"
Benzina,HVO_TANKSTELLE,49.744086,13.608374,,"https://www.google.com/maps/search/?api=1&query=49.7440861,13.6083735"
Benzina,HVO_TANKSTELLE,50.100709,12.386099,,"https://www.google.com/maps/search/?api=1&query=50.1007087,12.3860987"
Benzina,HVO_TANKSTELLE,50.034092,14.214901,,"https://www.google.com/maps/search/?api=1&query=50.034092,14.2149006"
Benzina,HVO_TANKSTELLE,50.099844,14.442871,,"https://www.google.com/maps/search/?api=1&query=50.0998442,14.442871"
Benzina,HVO_TANKSTELLE,50.138845,15.698761,,"https://www.google.com/maps/search/?api=1&query=50.1388452,15.6987611"
Benzina,HVO_TANKSTELLE,50.405193,14.931784,,"https://www.google.com/maps/search/?api=1&query=50.4051927,14.931784"
Benzina / Orlen,HVO_TANKSTELLE,50.481378,14.081347,,"https://www.google.com/maps/search/?api=1&query=50.4813779,14.0813467"
Benzina / Orlen,HVO_TANKSTELLE,50.756599,15.051796,,"https://www.google.com/maps/search/?api=1&query=50.756599,15.0517958"
Benzina / Orlen,HVO_TANKSTELLE,50.105162,14.069630,,"https://www.google.com/maps/search/?api=1&query=50.1051622,14.06963"
Bergler (ab Mai 25),HVO_TANKSTELLE,49.626055,12.074223,,"https://www.google.com/maps/search/?api=1&query=49.6260551,12.0742228"
Bft,HVO_TANKSTELLE,48.603053,8.870650,,"https://www.google.com/maps/search/?api=1&query=48.6030533,8.8706499"
Bft,HVO_TANKSTELLE,51.110411,10.930278,,"https://www.google.com/maps/search/?api=1&query=51.1104112,10.9302784"
Bft,HVO_TANKSTELLE,52.416335,7.975599,,"https://www.google.com/maps/search/?api=1&query=52.4163349,7.9755993"
Bft,HVO_TANKSTELLE,50.713949,10.125631,,"https://www.google.com/maps/search/?api=1&query=50.7139485,10.125631"
BFT,HVO_TANKSTELLE,52.737142,8.285267,,"https://www.google.com/maps/search/?api=1&query=52.7371421,8.2852674"
BFT,HVO_TANKSTELLE,49.757953,8.999051,,"https://www.google.com/maps/search/?api=1&query=49.7579529,8.9990507"
Bft (wieder frei),HVO_TANKSTELLE,51.377391,6.251983,,"https://www.google.com/maps/search/?api=1&query=51.3773906,6.2519828"
Bft / Walther,HVO_TANKSTELLE,50.034587,10.238407,,"https://www.google.com/maps/search/?api=1&query=50.0345869,10.2384066"
Bft / Walther,HVO_TANKSTELLE,50.316304,11.686225,,"https://www.google.com/maps/search/?api=1&query=50.3163042,11.6862249"
Bft PKW + LKW,HVO_TANKSTELLE,47.793784,11.063293,,"https://www.google.com/maps/search/?api=1&query=47.7937839,11.0632926"
Bft Tankstelle,HVO_TANKSTELLE,50.981946,9.778308,,"https://www.google.com/maps/search/?api=1&query=50.9819458,9.7783082"
Bft Walther,HVO_TANKSTELLE,50.785141,10.122007,,"https://www.google.com/maps/search/?api=1&query=50.7851406,10.1220072"
Bft Walther,HVO_TANKSTELLE,50.799203,10.618794,,"https://www.google.com/maps/search/?api=1&query=50.799203,10.6187942"
Bft Walther,HVO_TANKSTELLE,50.801242,10.323594,,"https://www.google.com/maps/search/?api=1&query=50.8012417,10.3235944"
Bft Walther,HVO_TANKSTELLE,50.247973,12.028348,,"https://www.google.com/maps/search/?api=1&query=50.2479732,12.028348"
Bft Walther,HVO_TANKSTELLE,49.899834,10.343657,,"https://www.google.com/maps/search/?api=1&query=49.8998342,10.343657"
Bft Walther,HVO_TANKSTELLE,50.033821,10.225207,,"https://www.google.com/maps/search/?api=1&query=50.0338213,10.2252073"
Biofuel Express (PKW + LKW),HVO_TANKSTELLE,54.898901,11.915474,,"https://www.google.com/maps/search/?api=1&query=54.8989006,11.9154744"
BioFuelExpress (PKW + LKW),HVO_TANKSTELLE,54.853593,9.364317,,"https://www.google.com/maps/search/?api=1&query=54.853593,9.3643167"
BK / Kaufland,HVO_TANKSTELLE,48.398350,12.761717,,"https://www.google.com/maps/search/?api=1&query=48.3983501,12.7617165"
BK / Kaufland,HVO_TANKSTELLE,48.417755,12.944092,,"https://www.google.com/maps/search/?api=1&query=48.4177552,12.9440915"
BK / SB Tankstelle / Buchwinkler,HVO_TANKSTELLE,47.606859,12.903811,,"https://www.google.com/maps/search/?api=1&query=47.6068588,12.9038108"
BK/Total,HVO_TANKSTELLE,48.210892,11.954230,,"https://www.google.com/maps/search/?api=1&query=48.2108921,11.9542304"
BMÖ,HVO_TANKSTELLE,53.089727,8.803787,,"https://www.google.com/maps/search/?api=1&query=53.0897266,8.8037871"
BMÖ,HVO_TANKSTELLE,53.029017,8.807491,,"https://www.google.com/maps/search/?api=1&query=53.0290168,8.8074909"
BMÖ,HVO_TANKSTELLE,53.046984,8.957161,,"https://www.google.com/maps/search/?api=1&query=53.0469837,8.9571606"
BMÖ,HVO_TANKSTELLE,53.230661,8.778848,,"https://www.google.com/maps/search/?api=1&query=53.2306607,8.7788477"
BMÖ,HVO_TANKSTELLE,53.228635,8.937259,,"https://www.google.com/maps/search/?api=1&query=53.228635,8.9372591"
BMÖ,HVO_TANKSTELLE,53.068849,8.866752,,"https://www.google.com/maps/search/?api=1&query=53.0688495,8.8667524"
BMÖ,HVO_TANKSTELLE,52.976033,8.791450,,"https://www.google.com/maps/search/?api=1&query=52.9760329,8.7914502"
Böttcher Energie,HVO_TANKSTELLE,49.012729,12.147000,,"https://www.google.com/maps/search/?api=1&query=49.0127295,12.1470001"
BP,HVO_TANKSTELLE,47.260980,11.421114,,"https://www.google.com/maps/search/?api=1&query=47.2609804,11.4211142"
BP,HVO_TANKSTELLE,47.444060,9.068822,,"https://www.google.com/maps/search/?api=1&query=47.44406,9.0688224"
BP  ( PKW + LKW ),HVO_TANKSTELLE,48.198589,13.604946,,"https://www.google.com/maps/search/?api=1&query=48.1985894,13.6049459"
BP / Leikermoser,HVO_TANKSTELLE,47.275571,11.434208,,"https://www.google.com/maps/search/?api=1&query=47.2755715,11.4342079"
BP / Leikermoser,HVO_TANKSTELLE,47.499314,12.188554,,"https://www.google.com/maps/search/?api=1&query=47.4993138,12.1885538"
BP / LM Energy,HVO_TANKSTELLE,47.096159,13.633853,,"https://www.google.com/maps/search/?api=1&query=47.0961587,13.6338534"
BP / LM Energy,HVO_TANKSTELLE,47.665586,12.753284,,"https://www.google.com/maps/search/?api=1&query=47.6655856,12.7532841"
BP / LM Energy / nur für LKW,HVO_TANKSTELLE,48.248159,13.015324,,"https://www.google.com/maps/search/?api=1&query=48.248159,13.0153239"
BP / Stiglechner LKW (und ältere PKW),HVO_TANKSTELLE,48.039702,13.991991,,"https://www.google.com/maps/search/?api=1&query=48.0397017,13.9919915"
BP / Stiglechner LKW und ältere PKW,HVO_TANKSTELLE,48.197885,15.221720,,"https://www.google.com/maps/search/?api=1&query=48.1978849,15.2217202"
BP Schallmoos,HVO_TANKSTELLE,47.808651,13.053032,,"https://www.google.com/maps/search/?api=1&query=47.8086514,13.0530317"
BP Truck,HVO_TANKSTELLE,53.475208,6.193552,,"https://www.google.com/maps/search/?api=1&query=53.475208,6.1935519"
BP Truck,HVO_TANKSTELLE,53.110441,6.058112,,"https://www.google.com/maps/search/?api=1&query=53.1104407,6.0581117"
BP Truck,HVO_TANKSTELLE,48.200256,13.645425,,"https://www.google.com/maps/search/?api=1&query=48.2002562,13.6454248"
BP Truck,HVO_TANKSTELLE,47.773011,14.178157,,"https://www.google.com/maps/search/?api=1&query=47.7730108,14.1781565"
BP Truck,HVO_TANKSTELLE,47.037820,11.473639,,"https://www.google.com/maps/search/?api=1&query=47.0378202,11.4736389"
BP Truck,HVO_TANKSTELLE,48.176163,15.557041,,"https://www.google.com/maps/search/?api=1&query=48.1761626,15.5570411"
BP Truck,HVO_TANKSTELLE,47.318290,11.653997,,"https://www.google.com/maps/search/?api=1&query=47.3182904,11.6539975"
BP Truck (evtl PKW),HVO_TANKSTELLE,47.989312,13.811901,,"https://www.google.com/maps/search/?api=1&query=47.9893125,13.811901"
BP Truck (PKW Infos Icon klicken),HVO_TANKSTELLE,47.249171,13.424641,,"https://www.google.com/maps/search/?api=1&query=47.2491712,13.4246406"
BP Truck und ältere PKW,HVO_TANKSTELLE,51.944478,5.757878,,"https://www.google.com/maps/search/?api=1&query=51.9444778,5.7578784"
BP Truck und ältere PKW,HVO_TANKSTELLE,48.178655,13.747181,,"https://www.google.com/maps/search/?api=1&query=48.1786553,13.7471808"
"BP Visser (LKW, PKW vllt auch)",HVO_TANKSTELLE,51.873777,5.639343,,"https://www.google.com/maps/search/?api=1&query=51.873777,5.6393435"
Brandol,HVO_TANKSTELLE,52.182256,14.242736,,"https://www.google.com/maps/search/?api=1&query=52.1822556,14.2427364"
BSP / Esso express De Lutte,HVO_TANKSTELLE,52.315537,6.995572,,"https://www.google.com/maps/search/?api=1&query=52.3155371,6.9955725"
BSP / Esso Express Grou,HVO_TANKSTELLE,53.096320,5.823605,,"https://www.google.com/maps/search/?api=1&query=53.0963197,5.8236054"
BSP / Esso Express Ommen,HVO_TANKSTELLE,52.529221,6.436482,,"https://www.google.com/maps/search/?api=1&query=52.5292213,6.4364821"
BSP / Esso express Staphorst,HVO_TANKSTELLE,52.641155,6.197965,,"https://www.google.com/maps/search/?api=1&query=52.6411547,6.197965"
BSP / Esso express Steenderen,HVO_TANKSTELLE,52.069963,6.191978,,"https://www.google.com/maps/search/?api=1&query=52.0699626,6.1919777"
BSP / Esso Express Vriezenveen,HVO_TANKSTELLE,52.404393,6.635977,,"https://www.google.com/maps/search/?api=1&query=52.4043928,6.6359773"
BSP / Firezone Doetinchem,HVO_TANKSTELLE,51.970956,6.268473,,"https://www.google.com/maps/search/?api=1&query=51.9709564,6.2684732"
BSP / Firezone Elburg,HVO_TANKSTELLE,52.439678,5.831134,,"https://www.google.com/maps/search/?api=1&query=52.4396779,5.8311338"
BSP / Firezone Hattemerbroek,HVO_TANKSTELLE,52.482295,6.019659,,"https://www.google.com/maps/search/?api=1&query=52.4822947,6.0196587"
BSP / Firezone IJsselmuiden,HVO_TANKSTELLE,52.554667,5.940382,,"https://www.google.com/maps/search/?api=1&query=52.5546665,5.9403817"
BSP / Firezone Kampen,HVO_TANKSTELLE,52.566555,5.872467,,"https://www.google.com/maps/search/?api=1&query=52.5665548,5.8724675"
BSP / Firezone Leeuwarden,HVO_TANKSTELLE,53.187561,5.755520,,"https://www.google.com/maps/search/?api=1&query=53.1875611,5.7555201"
BSP / Firezone Oudleusen,HVO_TANKSTELLE,52.530605,6.316651,,"https://www.google.com/maps/search/?api=1&query=52.5306047,6.3166515"
BSP / Firezone Zwolle (Hessenpoort),HVO_TANKSTELLE,52.537804,6.169955,,"https://www.google.com/maps/search/?api=1&query=52.5378043,6.1699553"
BSP / Texaco Apeldoorn,HVO_TANKSTELLE,52.200539,6.033806,,"https://www.google.com/maps/search/?api=1&query=52.2005394,6.0338064"
BSP / Texaco Apeldoorn LKW,HVO_TANKSTELLE,52.239333,5.988345,,"https://www.google.com/maps/search/?api=1&query=52.2393329,5.9883454"
BSP / Texaco Balkbrug,HVO_TANKSTELLE,52.603335,6.397992,,"https://www.google.com/maps/search/?api=1&query=52.603335,6.3979918"
BSP / Texaco Barneveld,HVO_TANKSTELLE,52.163706,5.586680,,"https://www.google.com/maps/search/?api=1&query=52.1637057,5.5866801"
BSP / Texaco Deurningen,HVO_TANKSTELLE,52.284469,6.853262,,"https://www.google.com/maps/search/?api=1&query=52.2844693,6.8532623"
BSP / Texaco Duiven / LKW,HVO_TANKSTELLE,51.974621,6.004245,,"https://www.google.com/maps/search/?api=1&query=51.9746211,6.004245"
BSP / Texaco Eemshaven,HVO_TANKSTELLE,53.444379,6.809192,,"https://www.google.com/maps/search/?api=1&query=53.4443787,6.8091922"
BSP / Texaco Hardenberg,HVO_TANKSTELLE,52.553207,6.646192,,"https://www.google.com/maps/search/?api=1&query=52.5532065,6.6461919"
BSP / Texaco Hasselt,HVO_TANKSTELLE,52.583970,6.088287,,"https://www.google.com/maps/search/?api=1&query=52.5839696,6.0882868"
BSP / Texaco Hattem,HVO_TANKSTELLE,52.484596,6.041885,,"https://www.google.com/maps/search/?api=1&query=52.4845961,6.0418848"
BSP / Texaco Heerenveen,HVO_TANKSTELLE,52.976566,5.937580,,"https://www.google.com/maps/search/?api=1&query=52.9765665,5.9375804"
BSP / Texaco Nijmegen,HVO_TANKSTELLE,51.853590,5.833421,,"https://www.google.com/maps/search/?api=1&query=51.8535896,5.8334206"
BSP / Texaco Raalte Truck (PKW?),HVO_TANKSTELLE,52.374018,6.285538,,"https://www.google.com/maps/search/?api=1&query=52.3740178,6.2855376"
Carrefour ( PKW ),HVO_TANKSTELLE,48.578904,6.518608,,"https://www.google.com/maps/search/?api=1&query=48.5789036,6.5186084"
Cepro PKW,HVO_TANKSTELLE,50.684679,13.993763,,"https://www.google.com/maps/search/?api=1&query=50.6846794,13.993763"
CH Tankstelle,HVO_TANKSTELLE,51.945200,8.013209,,"https://www.google.com/maps/search/?api=1&query=51.9451998,8.0132094"
Classic / Fa. Jorczyk,HVO_TANKSTELLE,52.633535,9.988864,,"https://www.google.com/maps/search/?api=1&query=52.6335348,9.9888644"
Classic Oil,HVO_TANKSTELLE,53.554383,7.473295,,"https://www.google.com/maps/search/?api=1&query=53.5543832,7.4732955"
Classic Oil,HVO_TANKSTELLE,51.132661,9.123261,,"https://www.google.com/maps/search/?api=1&query=51.1326612,9.1232613"
Classic Tankstelle,HVO_TANKSTELLE,52.814865,9.142831,,"https://www.google.com/maps/search/?api=1&query=52.8148649,9.1428309"
Classic Tankstelle,HVO_TANKSTELLE,52.606627,11.838150,,"https://www.google.com/maps/search/?api=1&query=52.6066271,11.8381505"
Classic Tankstelle,HVO_TANKSTELLE,52.990916,8.805895,,"https://www.google.com/maps/search/?api=1&query=52.9909157,8.8058951"
Classic Tankstelle,HVO_TANKSTELLE,51.852938,11.580581,,"https://www.google.com/maps/search/?api=1&query=51.8529376,11.5805814"
DCB Energy,HVO_TANKSTELLE,52.285336,6.748041,,"https://www.google.com/maps/search/?api=1&query=52.2853355,6.7480412"
DCB Energy / Orange Gas,HVO_TANKSTELLE,52.959980,6.549090,,"https://www.google.com/maps/search/?api=1&query=52.9599799,6.5490895"
DCB Energy Truck,HVO_TANKSTELLE,50.947155,5.703224,,"https://www.google.com/maps/search/?api=1&query=50.9471545,5.7032243"
DISK,HVO_TANKSTELLE,47.258366,11.399786,,"https://www.google.com/maps/search/?api=1&query=47.2583656,11.3997865"
Disk Tankstelle,HVO_TANKSTELLE,47.152859,10.582944,,"https://www.google.com/maps/search/?api=1&query=47.1528595,10.5829435"
Dittus Brennstoffe (PKW + LKW),HVO_TANKSTELLE,48.745371,8.806485,,"https://www.google.com/maps/search/?api=1&query=48.745371,8.8064853"
Donig / Aral PKW + LKW,HVO_TANKSTELLE,51.504470,9.389927,,"https://www.google.com/maps/search/?api=1&query=51.5044699,9.3899267"
Dovatrans Truck PKW,HVO_TANKSTELLE,49.383190,15.697234,,"https://www.google.com/maps/search/?api=1&query=49.3831897,15.6972342"
Drivers Inn,HVO_TANKSTELLE,48.082004,11.691641,,"https://www.google.com/maps/search/?api=1&query=48.0820039,11.6916405"
DS Emova,HVO_TANKSTELLE,50.973968,7.131008,,"https://www.google.com/maps/search/?api=1&query=50.9739675,7.1310081"
DS International Diesel Service LKW,HVO_TANKSTELLE,51.380789,6.190006,,"https://www.google.com/maps/search/?api=1&query=51.3807892,6.190006"
DTS (Truck und vermutlich auch PKW),HVO_TANKSTELLE,47.816333,13.059205,,"https://www.google.com/maps/search/?api=1&query=47.8163325,13.0592048"
E Center (Oktan),HVO_TANKSTELLE,49.597572,8.487691,,"https://www.google.com/maps/search/?api=1&query=49.5975725,8.4876908"
Eberhard Tankstelle,HVO_TANKSTELLE,49.127255,8.586386,,"https://www.google.com/maps/search/?api=1&query=49.1272549,8.5863861"
Eco Energy Truck,HVO_TANKSTELLE,50.646494,5.824619,,"https://www.google.com/maps/search/?api=1&query=50.6464942,5.824619"
EDI,HVO_TANKSTELLE,49.180538,9.219371,,"https://www.google.com/maps/search/?api=1&query=49.180538,9.2193705"
EDI,HVO_TANKSTELLE,49.196242,9.500331,,"https://www.google.com/maps/search/?api=1&query=49.1962424,9.5003309"
EDI,HVO_TANKSTELLE,49.254338,9.859124,,"https://www.google.com/maps/search/?api=1&query=49.2543379,9.8591243"
EDI,HVO_TANKSTELLE,49.205951,9.988924,,"https://www.google.com/maps/search/?api=1&query=49.2059512,9.9889238"
EDI,HVO_TANKSTELLE,49.064853,9.892392,,"https://www.google.com/maps/search/?api=1&query=49.0648532,9.8923925"
EDI,HVO_TANKSTELLE,49.204489,9.489248,,"https://www.google.com/maps/search/?api=1&query=49.2044893,9.4892483"
EDI,HVO_TANKSTELLE,49.167992,9.267107,,"https://www.google.com/maps/search/?api=1&query=49.1679924,9.2671066"
EDI,HVO_TANKSTELLE,49.143742,9.308730,,"https://www.google.com/maps/search/?api=1&query=49.1437422,9.3087303"
EFA-Tankstelle,HVO_TANKSTELLE,48.999164,8.427889,,"https://www.google.com/maps/search/?api=1&query=48.9991645,8.427889"
Eichele Tankstelle,HVO_TANKSTELLE,48.108768,11.663311,,"https://www.google.com/maps/search/?api=1&query=48.1087682,11.6633111"
ELO,HVO_TANKSTELLE,49.583856,11.004100,,"https://www.google.com/maps/search/?api=1&query=49.5838564,11.0040996"
ELO,HVO_TANKSTELLE,49.485553,10.781065,,"https://www.google.com/maps/search/?api=1&query=49.4855534,10.7810647"
ELO,HVO_TANKSTELLE,49.594663,11.091388,,"https://www.google.com/maps/search/?api=1&query=49.5946632,11.0913878"
ELO,HVO_TANKSTELLE,49.880189,10.883416,,"https://www.google.com/maps/search/?api=1&query=49.8801887,10.8834158"
ELO,HVO_TANKSTELLE,49.572221,10.873215,,"https://www.google.com/maps/search/?api=1&query=49.5722209,10.8732147"
ELO,HVO_TANKSTELLE,49.522035,10.976371,,"https://www.google.com/maps/search/?api=1&query=49.5220346,10.9763714"
ELO,HVO_TANKSTELLE,49.123846,10.770817,,"https://www.google.com/maps/search/?api=1&query=49.1238458,10.7708174"
ELO,HVO_TANKSTELLE,49.508331,11.271915,,"https://www.google.com/maps/search/?api=1&query=49.5083311,11.2719153"
"Energie Aktiv  (wichtige Info, Icon klicken)",HVO_TANKSTELLE,48.295020,8.808705,,"https://www.google.com/maps/search/?api=1&query=48.2950204,8.8087048"
"Energie Aktiv (wichtige Infos, aufs Icon klicken!)",HVO_TANKSTELLE,48.295087,8.808691,,"https://www.google.com/maps/search/?api=1&query=48.2950874,8.8086913"
Energiedirect,HVO_TANKSTELLE,48.014027,15.596368,,"https://www.google.com/maps/search/?api=1&query=48.0140266,15.5963676"
EnergieDirect,HVO_TANKSTELLE,48.187786,15.616531,,"https://www.google.com/maps/search/?api=1&query=48.1877859,15.6165311"
EnergieDirect,HVO_TANKSTELLE,47.039730,15.426020,,"https://www.google.com/maps/search/?api=1&query=47.0397299,15.4260199"
Engelmann Tankstelle PKW und LKW,HVO_TANKSTELLE,51.347821,12.221581,,"https://www.google.com/maps/search/?api=1&query=51.3478213,12.2215808"
Engemann Tankstelle für PKW und LKW(?),HVO_TANKSTELLE,51.356205,12.109953,,"https://www.google.com/maps/search/?api=1&query=51.356205,12.1099526"
ENI,HVO_TANKSTELLE,48.306868,14.316032,,"https://www.google.com/maps/search/?api=1&query=48.3068681,14.3160324"
ENI,HVO_TANKSTELLE,47.481336,9.731662,,"https://www.google.com/maps/search/?api=1&query=47.4813355,9.7316624"
ENI,HVO_TANKSTELLE,47.410398,9.720632,,"https://www.google.com/maps/search/?api=1&query=47.4103981,9.7206318"
ENI,HVO_TANKSTELLE,48.241981,14.291607,,"https://www.google.com/maps/search/?api=1&query=48.2419814,14.2916071"
ENI,HVO_TANKSTELLE,47.254209,11.398999,,"https://www.google.com/maps/search/?api=1&query=47.2542094,11.398999"
ENI,HVO_TANKSTELLE,47.263697,11.433338,,"https://www.google.com/maps/search/?api=1&query=47.2636967,11.4333385"
ENI,HVO_TANKSTELLE,47.494481,12.091197,,"https://www.google.com/maps/search/?api=1&query=47.4944806,12.0911965"
ENI,HVO_TANKSTELLE,47.265738,11.442613,,"https://www.google.com/maps/search/?api=1&query=47.2657385,11.4426132"
ENI,HVO_TANKSTELLE,48.165781,11.731117,,"https://www.google.com/maps/search/?api=1&query=48.1657814,11.731117"
ENI,HVO_TANKSTELLE,47.806193,13.780588,,"https://www.google.com/maps/search/?api=1&query=47.8061928,13.7805879"
ENI,HVO_TANKSTELLE,47.255618,11.398195,,"https://www.google.com/maps/search/?api=1&query=47.2556184,11.3981954"
ENI,HVO_TANKSTELLE,47.098524,15.418192,,"https://www.google.com/maps/search/?api=1&query=47.098524,15.4181917"
ENI,HVO_TANKSTELLE,48.307307,11.638539,,"https://www.google.com/maps/search/?api=1&query=48.3073074,11.6385391"
ENI,HVO_TANKSTELLE,50.969972,11.858402,,"https://www.google.com/maps/search/?api=1&query=50.9699722,11.8584018"
ENI,HVO_TANKSTELLE,47.054689,15.416567,,"https://www.google.com/maps/search/?api=1&query=47.0546888,15.4165671"
ENI,HVO_TANKSTELLE,48.213609,14.402760,,"https://www.google.com/maps/search/?api=1&query=48.2136092,14.4027601"
ENI,HVO_TANKSTELLE,47.352762,11.700124,,"https://www.google.com/maps/search/?api=1&query=47.352762,11.7001237"
ENI,HVO_TANKSTELLE,47.488577,9.702404,,"https://www.google.com/maps/search/?api=1&query=47.4885765,9.7024043"
ENI,HVO_TANKSTELLE,47.432704,11.879115,,"https://www.google.com/maps/search/?api=1&query=47.4327035,11.8791152"
ENI,HVO_TANKSTELLE,47.819445,13.017723,,"https://www.google.com/maps/search/?api=1&query=47.8194448,13.0177232"
ENI,HVO_TANKSTELLE,47.428105,12.842014,,"https://www.google.com/maps/search/?api=1&query=47.4281051,12.8420141"
ENI,HVO_TANKSTELLE,47.276791,11.473612,,"https://www.google.com/maps/search/?api=1&query=47.2767909,11.4736115"
ENI,HVO_TANKSTELLE,49.355742,9.081407,,"https://www.google.com/maps/search/?api=1&query=49.3557418,9.0814069"
ENI,HVO_TANKSTELLE,47.584461,10.559621,,"https://www.google.com/maps/search/?api=1&query=47.5844608,10.559621"
ENI,HVO_TANKSTELLE,48.645018,12.484751,,"https://www.google.com/maps/search/?api=1&query=48.6450176,12.4847514"
ENI,HVO_TANKSTELLE,49.421361,8.413617,,"https://www.google.com/maps/search/?api=1&query=49.4213611,8.4136166"
ENI ( PKW ),HVO_TANKSTELLE,48.269949,12.154812,,"https://www.google.com/maps/search/?api=1&query=48.2699487,12.154812"
ENI (ab 15.Juli 2025),HVO_TANKSTELLE,47.176843,13.100867,,"https://www.google.com/maps/search/?api=1&query=47.1768429,13.1008667"
ENI (ab 15.Juli 2025),HVO_TANKSTELLE,47.232309,10.735586,,"https://www.google.com/maps/search/?api=1&query=47.2323093,10.7355859"
ENI (ab 22.Juli 2025),HVO_TANKSTELLE,47.258382,11.372197,,"https://www.google.com/maps/search/?api=1&query=47.2583819,11.3721973"
ENI (ab 4.Dez 25),HVO_TANKSTELLE,48.274692,14.272827,,"https://www.google.com/maps/search/?api=1&query=48.274692,14.2728268"
ENI (PKW und / oder LKW),HVO_TANKSTELLE,47.140983,11.446119,,"https://www.google.com/maps/search/?api=1&query=47.1409828,11.4461194"
ENI / Gutmann PKW,HVO_TANKSTELLE,47.261588,11.264574,,"https://www.google.com/maps/search/?api=1&query=47.2615876,11.264574"
ENI / Gutmann PKW,HVO_TANKSTELLE,47.480193,10.735847,,"https://www.google.com/maps/search/?api=1&query=47.4801927,10.7358467"
ENI / Gutmann PKW und LKW,HVO_TANKSTELLE,47.091900,10.666946,,"https://www.google.com/maps/search/?api=1&query=47.0919002,10.6669461"
ENI / Hetteger Tankstelle,HVO_TANKSTELLE,47.591981,13.175380,,"https://www.google.com/maps/search/?api=1&query=47.5919814,13.1753795"
ENI Gutmann,HVO_TANKSTELLE,47.262537,11.373116,,"https://www.google.com/maps/search/?api=1&query=47.2625369,11.3731162"
ENI Gutmann,HVO_TANKSTELLE,47.153104,9.818293,,"https://www.google.com/maps/search/?api=1&query=47.1531041,9.8182934"
ENI Gutmann,HVO_TANKSTELLE,47.248458,11.444022,,"https://www.google.com/maps/search/?api=1&query=47.2484582,11.4440216"
ENI Gutmann PKW,HVO_TANKSTELLE,47.438688,9.759535,,"https://www.google.com/maps/search/?api=1&query=47.4386876,9.7595354"
ENI PKW und LKW,HVO_TANKSTELLE,48.010724,13.924539,,"https://www.google.com/maps/search/?api=1&query=48.0107236,13.9245388"
ENI Truck,HVO_TANKSTELLE,48.158342,15.112133,,"https://www.google.com/maps/search/?api=1&query=48.1583422,15.1121328"
ENI Truck,HVO_TANKSTELLE,47.732320,13.086512,,"https://www.google.com/maps/search/?api=1&query=47.7323202,13.0865121"
ENI Truck und ältere PKW,HVO_TANKSTELLE,48.190090,14.073289,,"https://www.google.com/maps/search/?api=1&query=48.1900904,14.0732893"
Esso,HVO_TANKSTELLE,52.311593,5.564934,,"https://www.google.com/maps/search/?api=1&query=52.3115931,5.5649335"
Esso,HVO_TANKSTELLE,48.177320,12.825217,,"https://www.google.com/maps/search/?api=1&query=48.1773196,12.8252166"
Esso,HVO_TANKSTELLE,49.395493,8.669309,,"https://www.google.com/maps/search/?api=1&query=49.3954925,8.6693086"
Esso,HVO_TANKSTELLE,49.138329,8.563857,,"https://www.google.com/maps/search/?api=1&query=49.1383291,8.5638573"
Esso,HVO_TANKSTELLE,49.392176,8.564684,,"https://www.google.com/maps/search/?api=1&query=49.392176,8.5646838"
Esso,HVO_TANKSTELLE,52.543006,5.919604,,"https://www.google.com/maps/search/?api=1&query=52.5430057,5.9196037"
Esso,HVO_TANKSTELLE,52.553798,5.936947,,"https://www.google.com/maps/search/?api=1&query=52.5537984,5.9369466"
Esso,HVO_TANKSTELLE,51.135732,5.505976,,"https://www.google.com/maps/search/?api=1&query=51.1357321,5.5059763"
Esso DeStroet,HVO_TANKSTELLE,52.087165,5.599823,,"https://www.google.com/maps/search/?api=1&query=52.0871648,5.5998234"
Esso Express Beek,HVO_TANKSTELLE,51.908842,6.187852,,"https://www.google.com/maps/search/?api=1&query=51.9088422,6.1878523"
Esso Express Hengelo,HVO_TANKSTELLE,52.251926,6.788873,,"https://www.google.com/maps/search/?api=1&query=52.2519264,6.788873"
Esso Express Oldebroek,HVO_TANKSTELLE,52.453350,5.918940,,"https://www.google.com/maps/search/?api=1&query=52.4533505,5.9189404"
Esso Express Tubbergen,HVO_TANKSTELLE,52.402823,6.789316,,"https://www.google.com/maps/search/?api=1&query=52.4028229,6.7893159"
Esso Express Veenendaal,HVO_TANKSTELLE,52.028681,5.580308,,"https://www.google.com/maps/search/?api=1&query=52.0286813,5.5803084"
Esso Marum,HVO_TANKSTELLE,53.151883,6.272460,,"https://www.google.com/maps/search/?api=1&query=53.1518835,6.2724595"
Esso PKW (LKW?),HVO_TANKSTELLE,48.824621,8.868852,,"https://www.google.com/maps/search/?api=1&query=48.8246209,8.8688519"
Esso Truck (oder ältere PKW),HVO_TANKSTELLE,48.783905,9.005273,,"https://www.google.com/maps/search/?api=1&query=48.7839046,9.0052729"
EuroOil (PKW und LKW),HVO_TANKSTELLE,50.400811,14.903757,,"https://www.google.com/maps/search/?api=1&query=50.4008109,14.9037572"
Eurowag Truck,HVO_TANKSTELLE,49.458045,15.603355,,"https://www.google.com/maps/search/?api=1&query=49.4580454,15.603355"
Eurowag Truck,HVO_TANKSTELLE,49.675656,12.600604,,"https://www.google.com/maps/search/?api=1&query=49.6756564,12.6006042"
Eurowag Truck,HVO_TANKSTELLE,49.971137,14.614660,,"https://www.google.com/maps/search/?api=1&query=49.9711368,14.6146601"
Eurowag Truck,HVO_TANKSTELLE,50.689734,13.974328,,"https://www.google.com/maps/search/?api=1&query=50.6897338,13.9743281"
Eurowag Truck,HVO_TANKSTELLE,48.313388,13.421956,,"https://www.google.com/maps/search/?api=1&query=48.3133883,13.4219563"
Évole Énergies ( PKW + LKW ),HVO_TANKSTELLE,47.244157,5.984235,,"https://www.google.com/maps/search/?api=1&query=47.2441571,5.9842345"
F. Leitner,HVO_TANKSTELLE,47.062752,15.423503,,"https://www.google.com/maps/search/?api=1&query=47.0627521,15.4235026"
"Fa. Hirschmann, Rosa Heizöl",HVO_TANKSTELLE,49.437543,10.946008,,"https://www.google.com/maps/search/?api=1&query=49.437543,10.946008"
"Fa. Hirschmann, Rosa Heizöl GmbH",HVO_TANKSTELLE,49.414799,11.895835,,"https://www.google.com/maps/search/?api=1&query=49.4147993,11.8958351"
Feha Tankstelle (PKW und LKW),HVO_TANKSTELLE,52.102617,9.388182,,"https://www.google.com/maps/search/?api=1&query=52.102617,9.3881825"
Felta,HVO_TANKSTELLE,52.731884,8.263910,,"https://www.google.com/maps/search/?api=1&query=52.7318845,8.2639098"
Felta,HVO_TANKSTELLE,52.826805,8.304106,,"https://www.google.com/maps/search/?api=1&query=52.8268047,8.3041064"
Felta,HVO_TANKSTELLE,52.151701,8.037742,,"https://www.google.com/maps/search/?api=1&query=52.1517009,8.0377422"
Felta,HVO_TANKSTELLE,52.523195,8.192925,,"https://www.google.com/maps/search/?api=1&query=52.5231954,8.1929245"
Felta,HVO_TANKSTELLE,52.896854,8.421217,,"https://www.google.com/maps/search/?api=1&query=52.8968542,8.4212173"
Felta,HVO_TANKSTELLE,52.724398,7.942922,,"https://www.google.com/maps/search/?api=1&query=52.7243984,7.9429225"
Felta,HVO_TANKSTELLE,53.163394,7.349518,,"https://www.google.com/maps/search/?api=1&query=53.1633943,7.3495176"
Felta,HVO_TANKSTELLE,53.395383,8.013925,,"https://www.google.com/maps/search/?api=1&query=53.3953833,8.0139246"
FELTA,HVO_TANKSTELLE,52.952720,10.548069,,"https://www.google.com/maps/search/?api=1&query=52.9527195,10.5480688"
Fieten Olie,HVO_TANKSTELLE,52.687464,6.271044,,"https://www.google.com/maps/search/?api=1&query=52.6874642,6.2710438"
Fieten Olie / Orange Gas,HVO_TANKSTELLE,52.728865,6.522450,,"https://www.google.com/maps/search/?api=1&query=52.728865,6.5224501"
Fieten Olie / Orange Gas,HVO_TANKSTELLE,52.718297,6.612520,,"https://www.google.com/maps/search/?api=1&query=52.7182965,6.6125204"
Fieten Olie / Orange Gas,HVO_TANKSTELLE,52.721648,6.615291,,"https://www.google.com/maps/search/?api=1&query=52.7216481,6.6152912"
Fieten Olje,HVO_TANKSTELLE,52.735136,6.495412,,"https://www.google.com/maps/search/?api=1&query=52.7351358,6.4954121"
Fieten Olje,HVO_TANKSTELLE,52.598055,6.491629,,"https://www.google.com/maps/search/?api=1&query=52.5980546,6.4916287"
Fieten Olje,HVO_TANKSTELLE,52.631272,6.212370,,"https://www.google.com/maps/search/?api=1&query=52.631272,6.2123696"
Fieten Olje,HVO_TANKSTELLE,52.803616,6.129046,,"https://www.google.com/maps/search/?api=1&query=52.8036165,6.1290464"
Fieten Olje,HVO_TANKSTELLE,52.974748,6.653659,,"https://www.google.com/maps/search/?api=1&query=52.9747482,6.6536587"
Fieten Olje,HVO_TANKSTELLE,53.006919,6.042133,,"https://www.google.com/maps/search/?api=1&query=53.0069192,6.0421332"
Fieten Olje,HVO_TANKSTELLE,53.154890,6.488865,,"https://www.google.com/maps/search/?api=1&query=53.1548904,6.4888648"
Fietenolie,HVO_TANKSTELLE,52.354947,6.495224,,"https://www.google.com/maps/search/?api=1&query=52.3549469,6.4952236"
Fietenolie,HVO_TANKSTELLE,52.612556,6.654781,,"https://www.google.com/maps/search/?api=1&query=52.6125561,6.654781"
Fietenolie,HVO_TANKSTELLE,52.859086,6.495635,,"https://www.google.com/maps/search/?api=1&query=52.8590861,6.4956346"
Fip Tankstelle / Tankpool24 (LKW/PKW?),HVO_TANKSTELLE,52.143083,7.553419,,"https://www.google.com/maps/search/?api=1&query=52.1430827,7.5534194"
Firezone,HVO_TANKSTELLE,52.520310,6.118409,,"https://www.google.com/maps/search/?api=1&query=52.5203099,6.1184091"
Freie Tankstelle,HVO_TANKSTELLE,48.956133,8.936532,,"https://www.google.com/maps/search/?api=1&query=48.956133,8.9365316"
FTA ( PKW + LKW ),HVO_TANKSTELLE,51.155921,13.975092,,"https://www.google.com/maps/search/?api=1&query=51.1559207,13.9750919"
GP Groot Argos Groningen,HVO_TANKSTELLE,53.204408,6.613262,,"https://www.google.com/maps/search/?api=1&query=53.2044082,6.6132622"
Greenpoint,HVO_TANKSTELLE,51.599026,5.522148,,"https://www.google.com/maps/search/?api=1&query=51.5990263,5.5221478"
Greenpoint,HVO_TANKSTELLE,51.688500,5.879951,,"https://www.google.com/maps/search/?api=1&query=51.6884999,5.8799512"
Greenpoint,HVO_TANKSTELLE,51.504367,5.788189,,"https://www.google.com/maps/search/?api=1&query=51.5043673,5.7881886"
Greenpoint,HVO_TANKSTELLE,51.414819,5.759819,,"https://www.google.com/maps/search/?api=1&query=51.4148187,5.7598189"
Greenpoint,HVO_TANKSTELLE,52.033627,5.611887,,"https://www.google.com/maps/search/?api=1&query=52.0336273,5.6118867"
Greenpoint,HVO_TANKSTELLE,51.448084,5.806040,,"https://www.google.com/maps/search/?api=1&query=51.4480841,5.8060396"
Greenpoint Truck,HVO_TANKSTELLE,52.283747,6.851276,,"https://www.google.com/maps/search/?api=1&query=52.2837468,6.851276"
Grüning Automobile,HVO_TANKSTELLE,53.706521,8.702276,,"https://www.google.com/maps/search/?api=1&query=53.7065209,8.702276"
GS Energie,HVO_TANKSTELLE,52.813989,8.235215,,"https://www.google.com/maps/search/?api=1&query=52.8139893,8.2352148"
Günther Energie,HVO_TANKSTELLE,48.353576,7.808884,,"https://www.google.com/maps/search/?api=1&query=48.3535761,7.8088845"
Heinrich Fip Tankstelle,HVO_TANKSTELLE,52.174626,7.867586,,"https://www.google.com/maps/search/?api=1&query=52.1746262,7.8675863"
Hempelmann,HVO_TANKSTELLE,52.149355,8.649278,,"https://www.google.com/maps/search/?api=1&query=52.1493547,8.6492779"
HERM,HVO_TANKSTELLE,49.568207,9.707995,,"https://www.google.com/maps/search/?api=1&query=49.5682074,9.7079949"
HERM,HVO_TANKSTELLE,49.480674,9.635587,,"https://www.google.com/maps/search/?api=1&query=49.4806742,9.6355866"
HERM Tankstelle,HVO_TANKSTELLE,49.828626,9.999169,,"https://www.google.com/maps/search/?api=1&query=49.8286257,9.9991686"
HERM Tankstelle,HVO_TANKSTELLE,49.522270,9.335591,,"https://www.google.com/maps/search/?api=1&query=49.5222698,9.3355907"
Hesbymazout Truck,HVO_TANKSTELLE,50.652359,5.998981,,"https://www.google.com/maps/search/?api=1&query=50.6523588,5.9989811"
"Hirschmann, Rosa Heizöl GmbH",HVO_TANKSTELLE,49.508935,11.419723,,"https://www.google.com/maps/search/?api=1&query=49.5089351,11.4197229"
Hormisch Tankstelle,HVO_TANKSTELLE,50.026409,6.233970,,"https://www.google.com/maps/search/?api=1&query=50.0264089,6.2339697"
Hörndl Tankstelle,HVO_TANKSTELLE,48.171372,11.920397,,"https://www.google.com/maps/search/?api=1&query=48.1713722,11.9203974"
HOS Truck,HVO_TANKSTELLE,53.181592,6.178666,,"https://www.google.com/maps/search/?api=1&query=53.1815918,6.1786657"
Hoyer,HVO_TANKSTELLE,52.618718,9.238875,,"https://www.google.com/maps/search/?api=1&query=52.6187181,9.2388751"
Hoyer,HVO_TANKSTELLE,52.986450,10.569522,,"https://www.google.com/maps/search/?api=1&query=52.9864498,10.5695216"
Hoyer,HVO_TANKSTELLE,51.451099,11.540773,,"https://www.google.com/maps/search/?api=1&query=51.451099,11.5407728"
Hoyer (LKW und PKW),HVO_TANKSTELLE,53.135730,8.720765,,"https://www.google.com/maps/search/?api=1&query=53.1357298,8.7207648"
Hoyer (PKW + LKW),HVO_TANKSTELLE,52.973990,7.391173,,"https://www.google.com/maps/search/?api=1&query=52.9739902,7.3911734"
Hoyer LKW (PKW folgt demnächst),HVO_TANKSTELLE,53.381190,11.627870,,"https://www.google.com/maps/search/?api=1&query=53.3811898,11.6278703"
Hoyer LKW (PKW mit Einschränkungen),HVO_TANKSTELLE,52.670110,9.689351,,"https://www.google.com/maps/search/?api=1&query=52.6701099,9.689351"
Hoyer LKW (und PKW),HVO_TANKSTELLE,53.853540,10.632259,,"https://www.google.com/maps/search/?api=1&query=53.8535396,10.6322588"
Hoyer LKW und PKW,HVO_TANKSTELLE,53.370108,9.801427,,"https://www.google.com/maps/search/?api=1&query=53.3701083,9.8014268"
Hoyer LKW und PKW,HVO_TANKSTELLE,49.594194,12.143831,,"https://www.google.com/maps/search/?api=1&query=49.594194,12.1438308"
Hoyer PKW + LKW,HVO_TANKSTELLE,51.302246,13.536925,,"https://www.google.com/maps/search/?api=1&query=51.3022462,13.5369252"
Hoyer PKW und evtl LKW,HVO_TANKSTELLE,53.087939,8.784296,,"https://www.google.com/maps/search/?api=1&query=53.0879391,8.7842961"
Hoyer PKW und LKW,HVO_TANKSTELLE,54.113276,12.172580,,"https://www.google.com/maps/search/?api=1&query=54.1132759,12.1725799"
Hoyer PKW und LKW,HVO_TANKSTELLE,51.040767,13.595982,,"https://www.google.com/maps/search/?api=1&query=51.0407672,13.5959817"
Hoyer PKW und LKW,HVO_TANKSTELLE,51.086793,6.815250,,"https://www.google.com/maps/search/?api=1&query=51.0867929,6.81525"
Hoyer PKW und LKW,HVO_TANKSTELLE,53.494689,10.122453,,"https://www.google.com/maps/search/?api=1&query=53.4946886,10.1224532"
Hoyer PKW und LKW,HVO_TANKSTELLE,53.494764,9.966223,,"https://www.google.com/maps/search/?api=1&query=53.4947642,9.9662228"
Hoyer PKW und LKW,HVO_TANKSTELLE,53.823738,10.507978,,"https://www.google.com/maps/search/?api=1&query=53.8237385,10.5079784"
Hoyer Truck,HVO_TANKSTELLE,50.892515,9.862802,,"https://www.google.com/maps/search/?api=1&query=50.8925146,9.8628017"
Hoyer Truck,HVO_TANKSTELLE,48.992688,12.150893,,"https://www.google.com/maps/search/?api=1&query=48.9926881,12.1508928"
Hoyer Truck,HVO_TANKSTELLE,50.017282,10.208148,,"https://www.google.com/maps/search/?api=1&query=50.0172816,10.2081477"
Hoyer Truck (PKW mit Einschränkungen),HVO_TANKSTELLE,52.050653,11.603667,,"https://www.google.com/maps/search/?api=1&query=52.0506534,11.6036669"
Hoyer Truck (PKW mit Einschränkungen),HVO_TANKSTELLE,52.280715,11.449289,,"https://www.google.com/maps/search/?api=1&query=52.280715,11.4492894"
Hoyer Truck (PKW mit Einschränkungen),HVO_TANKSTELLE,52.325983,10.473556,,"https://www.google.com/maps/search/?api=1&query=52.3259834,10.4735564"
Hoyer Truck /und evtl PKW),HVO_TANKSTELLE,52.485829,9.805786,,"https://www.google.com/maps/search/?api=1&query=52.4858294,9.8057862"
Hoyer Truck PKW und LKW,HVO_TANKSTELLE,52.801434,12.792720,,"https://www.google.com/maps/search/?api=1&query=52.8014344,12.7927202"
Hoyer Truck PKW und LKW,HVO_TANKSTELLE,51.413157,12.299870,,"https://www.google.com/maps/search/?api=1&query=51.4131568,12.2998704"
Hoyer Truck PKW und LKW,HVO_TANKSTELLE,52.356726,9.873187,,"https://www.google.com/maps/search/?api=1&query=52.3567255,9.8731868"
Hoyer Truck PKW und LKW,HVO_TANKSTELLE,52.080783,12.706638,,"https://www.google.com/maps/search/?api=1&query=52.0807831,12.7066384"
Hoyer Truck PKW und LKW,HVO_TANKSTELLE,52.387781,13.792278,,"https://www.google.com/maps/search/?api=1&query=52.3877808,13.7922784"
Hoyer Truck PKW und LKW Einschränkungen),HVO_TANKSTELLE,52.454098,9.734029,,"https://www.google.com/maps/search/?api=1&query=52.4540978,9.7340287"
Hoyer Truck und ältere PKW mit grossem Stutzen,HVO_TANKSTELLE,52.997830,9.921046,,"https://www.google.com/maps/search/?api=1&query=52.9978299,9.9210458"
Hoyer Truck und PKW,HVO_TANKSTELLE,52.458746,13.397110,,"https://www.google.com/maps/search/?api=1&query=52.4587458,13.3971098"
IDS LKW,HVO_TANKSTELLE,50.947954,5.702737,,"https://www.google.com/maps/search/?api=1&query=50.9479542,5.7027375"
IDS LKW,HVO_TANKSTELLE,50.652256,5.998150,,"https://www.google.com/maps/search/?api=1&query=50.6522561,5.9981495"
IDS LKW,HVO_TANKSTELLE,50.692155,5.627075,,"https://www.google.com/maps/search/?api=1&query=50.692155,5.6270747"
IDS LKW,HVO_TANKSTELLE,52.284654,6.927760,,"https://www.google.com/maps/search/?api=1&query=52.2846543,6.92776"
IDS Q8 Truck,HVO_TANKSTELLE,54.828821,9.350427,,"https://www.google.com/maps/search/?api=1&query=54.8288214,9.3504274"
IDS Truck,HVO_TANKSTELLE,47.771092,7.370530,,"https://www.google.com/maps/search/?api=1&query=47.7710923,7.3705297"
IDS Truck,HVO_TANKSTELLE,49.511421,6.001455,,"https://www.google.com/maps/search/?api=1&query=49.5114214,6.0014549"
Inntaler / AS24 Truck,HVO_TANKSTELLE,47.648514,12.197926,,"https://www.google.com/maps/search/?api=1&query=47.6485137,12.1979256"
Inntaler Autohof,HVO_TANKSTELLE,47.766083,12.105992,,"https://www.google.com/maps/search/?api=1&query=47.7660832,12.1059916"
IQ Tankstelle,HVO_TANKSTELLE,48.299130,14.330879,,"https://www.google.com/maps/search/?api=1&query=48.2991302,14.3308793"
IQ Tankstelle Truck und ältere PKW mit grösserem Stutzen,HVO_TANKSTELLE,48.152524,14.158157,,"https://www.google.com/maps/search/?api=1&query=48.1525236,14.1581574"
Jaeger Tankstellen,HVO_TANKSTELLE,50.986363,7.449110,,"https://www.google.com/maps/search/?api=1&query=50.9863628,7.4491103"
Joiss,HVO_TANKSTELLE,52.682887,8.815002,,"https://www.google.com/maps/search/?api=1&query=52.6828865,8.8150018"
Joiss,HVO_TANKSTELLE,52.417187,9.587898,,"https://www.google.com/maps/search/?api=1&query=52.417187,9.5878985"
Joiss,HVO_TANKSTELLE,52.089576,10.161014,,"https://www.google.com/maps/search/?api=1&query=52.0895761,10.161014"
Joiss,HVO_TANKSTELLE,52.906963,8.580113,,"https://www.google.com/maps/search/?api=1&query=52.9069631,8.5801126"
Joiss,HVO_TANKSTELLE,53.368030,8.695538,,"https://www.google.com/maps/search/?api=1&query=53.3680296,8.6955384"
Joiss,HVO_TANKSTELLE,52.148568,8.847422,,"https://www.google.com/maps/search/?api=1&query=52.1485676,8.8474216"
Joiss,HVO_TANKSTELLE,52.173541,10.330825,,"https://www.google.com/maps/search/?api=1&query=52.1735412,10.330825"
Jung SB Tank,HVO_TANKSTELLE,50.751297,8.553046,,"https://www.google.com/maps/search/?api=1&query=50.7512969,8.5530464"
K1,HVO_TANKSTELLE,52.829110,8.117289,,"https://www.google.com/maps/search/?api=1&query=52.82911,8.1172891"
Kaiser Energie,HVO_TANKSTELLE,51.400106,8.586849,,"https://www.google.com/maps/search/?api=1&query=51.4001059,8.5868486"
Killisperger Tankstelle ( PKW und LKW ),HVO_TANKSTELLE,48.547239,10.682626,,"https://www.google.com/maps/search/?api=1&query=48.5472392,10.682626"
KlimaPlus / TWC,HVO_TANKSTELLE,48.294431,8.806621,,"https://www.google.com/maps/search/?api=1&query=48.2944312,8.8066206"
Kling Energie,HVO_TANKSTELLE,48.958323,10.176072,,"https://www.google.com/maps/search/?api=1&query=48.9583234,10.176072"
Kling Energie,HVO_TANKSTELLE,48.959001,10.175208,,"https://www.google.com/maps/search/?api=1&query=48.9590014,10.1752082"
Kling Energie PKW + LKW,HVO_TANKSTELLE,48.889128,9.540411,,"https://www.google.com/maps/search/?api=1&query=48.8891277,9.540411"
Knauber Truck (evtl auch PKW?),HVO_TANKSTELLE,50.640134,6.700909,,"https://www.google.com/maps/search/?api=1&query=50.6401336,6.7009093"
Kreuze,HVO_TANKSTELLE,52.759695,6.234408,,"https://www.google.com/maps/search/?api=1&query=52.7596953,6.234408"
Kreuze,HVO_TANKSTELLE,52.788964,6.101351,,"https://www.google.com/maps/search/?api=1&query=52.7889645,6.1013507"
Kuster,HVO_TANKSTELLE,51.799841,6.139317,,"https://www.google.com/maps/search/?api=1&query=51.799841,6.1393172"
Kuster / Total PKW,HVO_TANKSTELLE,51.984873,5.919023,,"https://www.google.com/maps/search/?api=1&query=51.9848731,5.9190234"
Kuster Tankstelle,HVO_TANKSTELLE,51.946111,6.283772,,"https://www.google.com/maps/search/?api=1&query=51.9461108,6.2837715"
Kuster Tankstelle,HVO_TANKSTELLE,51.961300,6.714763,,"https://www.google.com/maps/search/?api=1&query=51.9612998,6.714763"
Kuster Tankstellen,HVO_TANKSTELLE,51.946682,6.225396,,"https://www.google.com/maps/search/?api=1&query=51.9466816,6.2253963"
Kusters ( LKW + PKW ),HVO_TANKSTELLE,51.858850,6.473224,,"https://www.google.com/maps/search/?api=1&query=51.8588497,6.473224"
Kusters ( PKW + LKW ),HVO_TANKSTELLE,51.906468,5.923913,,"https://www.google.com/maps/search/?api=1&query=51.9064682,5.9239133"
Kusters Tankstellen,HVO_TANKSTELLE,52.061591,6.624283,,"https://www.google.com/maps/search/?api=1&query=52.0615909,6.6242826"
Lanfer Energie,HVO_TANKSTELLE,52.673914,7.938719,,"https://www.google.com/maps/search/?api=1&query=52.6739144,7.9387192"
Lanfer Energie,HVO_TANKSTELLE,52.706041,7.284438,,"https://www.google.com/maps/search/?api=1&query=52.7060409,7.2844381"
Lasek Tankstelle ( PKW + LKW ),HVO_TANKSTELLE,48.987215,14.496935,,"https://www.google.com/maps/search/?api=1&query=48.9872155,14.4969349"
Leikermoser,HVO_TANKSTELLE,47.564840,13.342391,,"https://www.google.com/maps/search/?api=1&query=47.5648403,13.342391"
Leitner Tankstelle (LKW und ältere PKW oder Trichter),HVO_TANKSTELLE,48.047359,14.059421,,"https://www.google.com/maps/search/?api=1&query=48.0473593,14.0594212"
Lenz Tankstelle,HVO_TANKSTELLE,49.611941,9.487154,,"https://www.google.com/maps/search/?api=1&query=49.6119406,9.4871537"
Leo Tankstelle,HVO_TANKSTELLE,52.542304,9.727763,,"https://www.google.com/maps/search/?api=1&query=52.5423044,9.7277629"
LEO Tankstelle,HVO_TANKSTELLE,52.520819,10.537571,,"https://www.google.com/maps/search/?api=1&query=52.5208194,10.5375706"
Leu Energie,HVO_TANKSTELLE,50.311210,11.915504,,"https://www.google.com/maps/search/?api=1&query=50.3112099,11.9155037"
Leu Energie,HVO_TANKSTELLE,50.210423,11.300715,,"https://www.google.com/maps/search/?api=1&query=50.2104228,11.3007149"
Leu Tankstelle,HVO_TANKSTELLE,50.340856,11.967115,,"https://www.google.com/maps/search/?api=1&query=50.3408559,11.9671146"
Leu Tankstelle,HVO_TANKSTELLE,49.211135,12.018806,,"https://www.google.com/maps/search/?api=1&query=49.2111355,12.018806"
LM Emergy,HVO_TANKSTELLE,47.781340,13.240707,,"https://www.google.com/maps/search/?api=1&query=47.7813404,13.240707"
LM Energie,HVO_TANKSTELLE,47.731448,13.063985,,"https://www.google.com/maps/search/?api=1&query=47.7314484,13.063985"
LM Energy,HVO_TANKSTELLE,47.286750,12.526995,,"https://www.google.com/maps/search/?api=1&query=47.2867504,12.5269949"
LM Energy,HVO_TANKSTELLE,47.433336,13.519468,,"https://www.google.com/maps/search/?api=1&query=47.4333362,13.5194683"
LM Energy,HVO_TANKSTELLE,47.359497,12.799774,,"https://www.google.com/maps/search/?api=1&query=47.3594967,12.7997738"
LM Energy,HVO_TANKSTELLE,47.151607,9.810606,,"https://www.google.com/maps/search/?api=1&query=47.1516069,9.810606"
LM Energy Express,HVO_TANKSTELLE,47.334065,13.189007,,"https://www.google.com/maps/search/?api=1&query=47.3340647,13.1890074"
LTG Truck,HVO_TANKSTELLE,49.330006,8.540504,,"https://www.google.com/maps/search/?api=1&query=49.3300059,8.5405039"
Ludwig Baierer Tankstelle,HVO_TANKSTELLE,48.855118,13.393539,,"https://www.google.com/maps/search/?api=1&query=48.8551179,13.3935394"
M-Rast,HVO_TANKSTELLE,47.194215,14.722252,,"https://www.google.com/maps/search/?api=1&query=47.194215,14.7222515"
M1 Tankstelle,HVO_TANKSTELLE,52.157783,11.663534,,"https://www.google.com/maps/search/?api=1&query=52.1577825,11.6635344"
Macro Energies,HVO_TANKSTELLE,47.070059,8.284155,,"https://www.google.com/maps/search/?api=1&query=47.0700586,8.2841552"
Macro Swiss Energy,HVO_TANKSTELLE,47.084239,8.038302,,"https://www.google.com/maps/search/?api=1&query=47.0842386,8.0383017"
MAES,HVO_TANKSTELLE,50.788070,5.503244,,"https://www.google.com/maps/search/?api=1&query=50.7880703,5.5032441"
Markant /Westfalen ( PKW + LKW ),HVO_TANKSTELLE,51.766505,7.460966,,"https://www.google.com/maps/search/?api=1&query=51.7665049,7.4609657"
Marktkauf Tankstelle,HVO_TANKSTELLE,52.273254,7.743621,,"https://www.google.com/maps/search/?api=1&query=52.2732535,7.7436213"
Markttankstelle,HVO_TANKSTELLE,52.507378,7.321534,,"https://www.google.com/maps/search/?api=1&query=52.5073784,7.3215344"
Mende Tankstelle (ab Dez 25),HVO_TANKSTELLE,51.831321,12.808155,,"https://www.google.com/maps/search/?api=1&query=51.8313207,12.8081554"
Merbag Nutzfahrzeuge PKW u LKW,HVO_TANKSTELLE,47.401055,8.438730,,"https://www.google.com/maps/search/?api=1&query=47.4010549,8.4387303"
Migrol,HVO_TANKSTELLE,47.383143,8.087153,,"https://www.google.com/maps/search/?api=1&query=47.3831433,8.0871526"
Minera Tankstelle,HVO_TANKSTELLE,49.481523,8.284159,,"https://www.google.com/maps/search/?api=1&query=49.4815229,8.2841587"
Mineralöl Harrer,HVO_TANKSTELLE,47.843516,11.140809,,"https://www.google.com/maps/search/?api=1&query=47.8435162,11.1408088"
Mobilität und Energie,HVO_TANKSTELLE,51.367410,8.430766,,"https://www.google.com/maps/search/?api=1&query=51.3674096,8.4307661"
Mobilität und Energie Truck-Station,HVO_TANKSTELLE,50.943243,6.584370,,"https://www.google.com/maps/search/?api=1&query=50.9432433,6.5843696"
MOL ( Truck / PKW? ),HVO_TANKSTELLE,49.678302,12.601662,,"https://www.google.com/maps/search/?api=1&query=49.678302,12.6016617"
Mowag,HVO_TANKSTELLE,47.631399,8.323059,,"https://www.google.com/maps/search/?api=1&query=47.6313992,8.3230592"
MOWAG Tankstelle / TP24,HVO_TANKSTELLE,47.631779,8.268355,,"https://www.google.com/maps/search/?api=1&query=47.6317793,8.268355"
MTB,HVO_TANKSTELLE,48.507866,8.832666,,"https://www.google.com/maps/search/?api=1&query=48.5078662,8.832666"
MTB,HVO_TANKSTELLE,48.538351,8.746494,,"https://www.google.com/maps/search/?api=1&query=48.5383508,8.7464938"
MTB,HVO_TANKSTELLE,48.416260,9.035310,,"https://www.google.com/maps/search/?api=1&query=48.4162597,9.0353098"
MTB,HVO_TANKSTELLE,48.557379,8.960098,,"https://www.google.com/maps/search/?api=1&query=48.557379,8.9600981"
MTB,HVO_TANKSTELLE,48.776932,8.731195,,"https://www.google.com/maps/search/?api=1&query=48.776932,8.7311951"
MTB,HVO_TANKSTELLE,48.535399,8.567454,,"https://www.google.com/maps/search/?api=1&query=48.5353988,8.567454"
MTB,HVO_TANKSTELLE,48.406458,9.051001,,"https://www.google.com/maps/search/?api=1&query=48.4064576,9.0510005"
MTB,HVO_TANKSTELLE,47.852520,8.768479,,"https://www.google.com/maps/search/?api=1&query=47.8525202,8.7684788"
MTB,HVO_TANKSTELLE,48.652233,9.573437,,"https://www.google.com/maps/search/?api=1&query=48.6522327,9.573437"
MTB,HVO_TANKSTELLE,49.103489,9.203359,,"https://www.google.com/maps/search/?api=1&query=49.1034893,9.2033587"
MTB,HVO_TANKSTELLE,48.534223,8.725252,,"https://www.google.com/maps/search/?api=1&query=48.5342234,8.7252517"
MTB,HVO_TANKSTELLE,48.877442,9.401070,,"https://www.google.com/maps/search/?api=1&query=48.8774416,9.4010702"
MTB Tankstelle,HVO_TANKSTELLE,48.068727,8.467873,,"https://www.google.com/maps/search/?api=1&query=48.0687269,8.4678729"
Mundorf Tank,HVO_TANKSTELLE,50.873991,7.198167,,"https://www.google.com/maps/search/?api=1&query=50.8739908,7.1981673"
Mundorf Tank,HVO_TANKSTELLE,50.829761,7.027287,,"https://www.google.com/maps/search/?api=1&query=50.8297607,7.0272869"
New Prozess AG (Hinweise lesen ! Icon klicken ! ),HVO_TANKSTELLE,47.579106,8.948676,,"https://www.google.com/maps/search/?api=1&query=47.5791063,8.9486761"
Nordoel,HVO_TANKSTELLE,53.903522,9.491832,,"https://www.google.com/maps/search/?api=1&query=53.9035217,9.4918322"
Nordoel,HVO_TANKSTELLE,53.488965,10.194822,,"https://www.google.com/maps/search/?api=1&query=53.4889647,10.1948221"
Nordoel,HVO_TANKSTELLE,53.704766,10.003242,,"https://www.google.com/maps/search/?api=1&query=53.7047657,10.0032422"
Nordoel,HVO_TANKSTELLE,54.291346,10.597793,,"https://www.google.com/maps/search/?api=1&query=54.2913461,10.5977933"
Nordoel,HVO_TANKSTELLE,53.654135,11.404868,,"https://www.google.com/maps/search/?api=1&query=53.6541347,11.404868"
Nordöl,HVO_TANKSTELLE,52.503702,9.474136,,"https://www.google.com/maps/search/?api=1&query=52.5037019,9.4741364"
NXT,HVO_TANKSTELLE,52.550524,5.694447,,"https://www.google.com/maps/search/?api=1&query=52.5505241,5.6944474"
NXT,HVO_TANKSTELLE,53.110771,6.135343,,"https://www.google.com/maps/search/?api=1&query=53.110771,6.1353431"
Oester,HVO_TANKSTELLE,48.468938,8.438388,,"https://www.google.com/maps/search/?api=1&query=48.4689378,8.4383878"
Oktan,HVO_TANKSTELLE,53.577873,8.111301,,"https://www.google.com/maps/search/?api=1&query=53.5778731,8.1113011"
Oktan,HVO_TANKSTELLE,49.959679,11.601928,,"https://www.google.com/maps/search/?api=1&query=49.9596789,11.6019278"
Oktan,HVO_TANKSTELLE,51.373826,7.980122,,"https://www.google.com/maps/search/?api=1&query=51.3738263,7.9801223"
Oktan (evtl. Zapfsäule sporadisch geschlossen),HVO_TANKSTELLE,51.956535,8.579931,,"https://www.google.com/maps/search/?api=1&query=51.9565354,8.5799314"
Oktan / EDEKA 24Std Tankstelle,HVO_TANKSTELLE,50.030857,10.230645,,"https://www.google.com/maps/search/?api=1&query=50.0308568,10.2306455"
Oktan Tankstelle,HVO_TANKSTELLE,53.002976,11.719160,,"https://www.google.com/maps/search/?api=1&query=53.0029763,11.7191598"
OMV,HVO_TANKSTELLE,47.265170,11.426149,,"https://www.google.com/maps/search/?api=1&query=47.2651698,11.4261485"
OMV,HVO_TANKSTELLE,49.956806,14.062697,,"https://www.google.com/maps/search/?api=1&query=49.9568057,14.062697"
OMV,HVO_TANKSTELLE,50.480510,14.083753,,"https://www.google.com/maps/search/?api=1&query=50.4805099,14.0837534"
OMV,HVO_TANKSTELLE,49.956180,14.063179,,"https://www.google.com/maps/search/?api=1&query=49.9561801,14.0631792"
OMV,HVO_TANKSTELLE,50.410136,14.930636,,"https://www.google.com/maps/search/?api=1&query=50.4101363,14.9306362"
OMV,HVO_TANKSTELLE,47.841454,13.209627,,"https://www.google.com/maps/search/?api=1&query=47.8414536,13.2096271"
OMV (LKW / PKW ?),HVO_TANKSTELLE,47.042001,15.464582,,"https://www.google.com/maps/search/?api=1&query=47.0420013,15.4645818"
"OMV (LKW und/oder PKW, Icon klicken!)",HVO_TANKSTELLE,48.127237,15.008493,,"https://www.google.com/maps/search/?api=1&query=48.1272371,15.008493"
OMV (PKW u LKW),HVO_TANKSTELLE,47.538126,12.441033,,"https://www.google.com/maps/search/?api=1&query=47.5381264,12.4410332"
OMV Euro Truck LKW und ältere PKW,HVO_TANKSTELLE,48.196242,14.526994,,"https://www.google.com/maps/search/?api=1&query=48.1962421,14.5269942"
OMV für PKW und LKW,HVO_TANKSTELLE,47.017832,11.507529,,"https://www.google.com/maps/search/?api=1&query=47.0178325,11.5075286"
OMV Truck (und ältere PKW mit grossem Stutzen),HVO_TANKSTELLE,47.347235,11.690352,,"https://www.google.com/maps/search/?api=1&query=47.3472351,11.6903517"
Orlen,HVO_TANKSTELLE,53.749662,9.681805,,"https://www.google.com/maps/search/?api=1&query=53.7496621,9.6818054"
Ortlepp Tankstelle,HVO_TANKSTELLE,50.890428,10.848493,,"https://www.google.com/maps/search/?api=1&query=50.8904285,10.8484928"
PM / Shell,HVO_TANKSTELLE,50.775945,6.112073,,"https://www.google.com/maps/search/?api=1&query=50.7759445,6.1120734"
PM Shell,HVO_TANKSTELLE,50.498164,6.675395,,"https://www.google.com/maps/search/?api=1&query=50.4981644,6.6753953"
PM Shell,HVO_TANKSTELLE,50.797337,6.476949,,"https://www.google.com/maps/search/?api=1&query=50.7973367,6.4769491"
PS-Laden,HVO_TANKSTELLE,48.574036,9.877159,,"https://www.google.com/maps/search/?api=1&query=48.5740357,9.8771594"
Q1,HVO_TANKSTELLE,52.270711,8.025980,,"https://www.google.com/maps/search/?api=1&query=52.2707113,8.0259798"
Q1,HVO_TANKSTELLE,48.823122,8.162541,,"https://www.google.com/maps/search/?api=1&query=48.8231225,8.1625405"
Q1,HVO_TANKSTELLE,52.250663,9.051886,,"https://www.google.com/maps/search/?api=1&query=52.2506629,9.0518864"
Q1,HVO_TANKSTELLE,52.181062,8.423128,,"https://www.google.com/maps/search/?api=1&query=52.1810616,8.4231282"
Q1,HVO_TANKSTELLE,52.345031,7.967750,,"https://www.google.com/maps/search/?api=1&query=52.3450306,7.9677504"
Raiffeisen,HVO_TANKSTELLE,51.825200,7.319601,,"https://www.google.com/maps/search/?api=1&query=51.8252001,7.3196008"
Raiffeisen,HVO_TANKSTELLE,51.147287,8.002997,,"https://www.google.com/maps/search/?api=1&query=51.1472873,8.0029969"
Raiffeisen,HVO_TANKSTELLE,50.960242,8.026545,,"https://www.google.com/maps/search/?api=1&query=50.9602417,8.0265455"
Raiffeisen,HVO_TANKSTELLE,52.989910,8.265967,,"https://www.google.com/maps/search/?api=1&query=52.9899096,8.265967"
Raiffeisen,HVO_TANKSTELLE,50.633594,6.960013,,"https://www.google.com/maps/search/?api=1&query=50.6335935,6.9600129"
Raiffeisen,HVO_TANKSTELLE,51.940319,7.635444,,"https://www.google.com/maps/search/?api=1&query=51.9403192,7.6354444"
Raiffeisen,HVO_TANKSTELLE,51.308952,11.943676,,"https://www.google.com/maps/search/?api=1&query=51.3089525,11.9436756"
Raiffeisen,HVO_TANKSTELLE,53.609541,10.637099,,"https://www.google.com/maps/search/?api=1&query=53.6095415,10.6370993"
Raiffeisen,HVO_TANKSTELLE,53.391858,8.031304,,"https://www.google.com/maps/search/?api=1&query=53.3918585,8.0313045"
Raiffeisen,HVO_TANKSTELLE,52.768469,7.459549,,"https://www.google.com/maps/search/?api=1&query=52.7684692,7.4595487"
Raiffeisen,HVO_TANKSTELLE,53.134201,12.177255,,"https://www.google.com/maps/search/?api=1&query=53.1342008,12.1772545"
Raiffeisen PKW-Tankautomat,HVO_TANKSTELLE,50.573550,7.034755,,"https://www.google.com/maps/search/?api=1&query=50.5735497,7.0347553"
Raiffeisen Tankstelle,HVO_TANKSTELLE,53.633050,7.620407,,"https://www.google.com/maps/search/?api=1&query=53.6330502,7.620407"
Raiffeisen Tankstelle,HVO_TANKSTELLE,51.731452,7.167242,,"https://www.google.com/maps/search/?api=1&query=51.7314518,7.1672422"
Raiffeisen Tankstelle,HVO_TANKSTELLE,52.525988,9.122573,,"https://www.google.com/maps/search/?api=1&query=52.5259881,9.1225728"
Raiffeisen Tankstelle ( PKW + LKW ),HVO_TANKSTELLE,50.929388,8.426773,,"https://www.google.com/maps/search/?api=1&query=50.9293878,8.4267732"
Raiffeisen-Lagerhaus,HVO_TANKSTELLE,47.842848,13.041956,,"https://www.google.com/maps/search/?api=1&query=47.8428478,13.0419558"
Raiffeisen-Lagerhaus PKW und LKW,HVO_TANKSTELLE,48.395162,13.426308,,"https://www.google.com/maps/search/?api=1&query=48.3951617,13.4263078"
"Raiffeisen, Agravis",HVO_TANKSTELLE,51.703254,9.984714,,"https://www.google.com/maps/search/?api=1&query=51.7032539,9.9847136"
Raimund Tankstelle,HVO_TANKSTELLE,49.960622,11.597430,,"https://www.google.com/maps/search/?api=1&query=49.9606218,11.5974299"
Raimund Tankstelle,HVO_TANKSTELLE,50.038236,11.354393,,"https://www.google.com/maps/search/?api=1&query=50.0382365,11.3543927"
Raisa,HVO_TANKSTELLE,53.373667,9.009055,,"https://www.google.com/maps/search/?api=1&query=53.3736674,9.0090547"
Raisa,HVO_TANKSTELLE,53.371777,9.204539,,"https://www.google.com/maps/search/?api=1&query=53.3717766,9.2045391"
Raisa Tankstelle,HVO_TANKSTELLE,53.587391,9.249529,,"https://www.google.com/maps/search/?api=1&query=53.5873906,9.2495292"
RAN,HVO_TANKSTELLE,48.288466,10.077479,,"https://www.google.com/maps/search/?api=1&query=48.2884656,10.077479"
RAN Tankstelle (ab 24.7.24),HVO_TANKSTELLE,49.796445,9.979332,,"https://www.google.com/maps/search/?api=1&query=49.7964446,9.9793316"
Rapp Tankstelle,HVO_TANKSTELLE,48.928385,8.967563,,"https://www.google.com/maps/search/?api=1&query=48.9283855,8.9675631"
RHV,HVO_TANKSTELLE,50.649981,7.325818,,"https://www.google.com/maps/search/?api=1&query=50.6499806,7.3258179"
RHV,HVO_TANKSTELLE,50.485748,9.716032,,"https://www.google.com/maps/search/?api=1&query=50.485748,9.7160322"
RHV,HVO_TANKSTELLE,50.355331,9.536001,,"https://www.google.com/maps/search/?api=1&query=50.3553313,9.536001"
RHV - PKW und LKW,HVO_TANKSTELLE,50.194664,8.648670,,"https://www.google.com/maps/search/?api=1&query=50.1946642,8.6486704"
RHV (Icon drücken!),HVO_TANKSTELLE,51.195288,10.481402,,"https://www.google.com/maps/search/?api=1&query=51.1952877,10.4814023"
RHV (PKW + LKW),HVO_TANKSTELLE,51.051065,8.779541,,"https://www.google.com/maps/search/?api=1&query=51.0510652,8.7795407"
RHV LKW und PKW,HVO_TANKSTELLE,50.851277,9.726501,,"https://www.google.com/maps/search/?api=1&query=50.8512774,9.7265006"
RHV Truck,HVO_TANKSTELLE,51.248409,9.451364,,"https://www.google.com/maps/search/?api=1&query=51.2484092,9.4513642"
Robin Oil,HVO_TANKSTELLE,50.387211,13.541895,,"https://www.google.com/maps/search/?api=1&query=50.3872109,13.541895"
RobinOil,HVO_TANKSTELLE,50.149803,14.133016,,"https://www.google.com/maps/search/?api=1&query=50.1498032,14.1330161"
RobinOil,HVO_TANKSTELLE,49.785416,13.720299,,"https://www.google.com/maps/search/?api=1&query=49.785416,13.7202987"
Rognon ( PKW + LKW ),HVO_TANKSTELLE,47.055773,6.608854,,"https://www.google.com/maps/search/?api=1&query=47.0557727,6.6088537"
Roth,HVO_TANKSTELLE,50.572431,8.726671,,"https://www.google.com/maps/search/?api=1&query=50.5724312,8.7266708"
Roth,HVO_TANKSTELLE,47.048606,15.452538,,"https://www.google.com/maps/search/?api=1&query=47.0486061,15.4525384"
ROTH,HVO_TANKSTELLE,50.139073,8.745759,,"https://www.google.com/maps/search/?api=1&query=50.1390726,8.7457594"
ROTH,HVO_TANKSTELLE,50.769180,8.153566,,"https://www.google.com/maps/search/?api=1&query=50.7691796,8.1535657"
Roth (ab Ende Januar 2025),HVO_TANKSTELLE,50.583545,8.649305,,"https://www.google.com/maps/search/?api=1&query=50.5835448,8.6493053"
Roth Enegie,HVO_TANKSTELLE,51.444741,6.685802,,"https://www.google.com/maps/search/?api=1&query=51.4447406,6.6858019"
Roth Energie,HVO_TANKSTELLE,50.341401,9.030413,,"https://www.google.com/maps/search/?api=1&query=50.3414011,9.0304133"
Roth Energie,HVO_TANKSTELLE,51.008776,10.263121,,"https://www.google.com/maps/search/?api=1&query=51.0087764,10.2631207"
Roth Energie,HVO_TANKSTELLE,50.566403,8.484929,,"https://www.google.com/maps/search/?api=1&query=50.5664025,8.4849295"
Roth Energie,HVO_TANKSTELLE,49.889432,8.611060,,"https://www.google.com/maps/search/?api=1&query=49.8894325,8.6110598"
Roth Energie,HVO_TANKSTELLE,49.964137,9.097677,,"https://www.google.com/maps/search/?api=1&query=49.9641368,9.0976771"
Roth Energie,HVO_TANKSTELLE,50.674783,8.812857,,"https://www.google.com/maps/search/?api=1&query=50.674783,8.812857"
Roth Energie,HVO_TANKSTELLE,50.594689,8.714317,,"https://www.google.com/maps/search/?api=1&query=50.5946887,8.7143166"
ROTH Energie,HVO_TANKSTELLE,50.206419,9.163792,,"https://www.google.com/maps/search/?api=1&query=50.2064188,9.1637924"
ROTH Energie,HVO_TANKSTELLE,50.524867,8.592822,,"https://www.google.com/maps/search/?api=1&query=50.5248673,8.5928223"
Roth Energie LKW (oder ältere PKW),HVO_TANKSTELLE,49.898504,8.618528,,"https://www.google.com/maps/search/?api=1&query=49.8985042,8.6185275"
Roth Tankstelle,HVO_TANKSTELLE,50.505029,8.832669,,"https://www.google.com/maps/search/?api=1&query=50.5050293,8.8326692"
Roth Truck ( PKW + LKW ),HVO_TANKSTELLE,50.119698,8.744124,,"https://www.google.com/maps/search/?api=1&query=50.1196983,8.7441239"
Rudi Rüssel,HVO_TANKSTELLE,47.380567,8.091691,,"https://www.google.com/maps/search/?api=1&query=47.3805675,8.091691"
Rudi Rüssel,HVO_TANKSTELLE,47.396658,8.068922,,"https://www.google.com/maps/search/?api=1&query=47.3966584,8.0689219"
Rudi Rüssel,HVO_TANKSTELLE,47.004717,7.680896,,"https://www.google.com/maps/search/?api=1&query=47.0047168,7.6808962"
Rumpold,HVO_TANKSTELLE,47.100508,15.557918,,"https://www.google.com/maps/search/?api=1&query=47.1005084,15.5579184"
Rumpold,HVO_TANKSTELLE,47.122291,15.358373,,"https://www.google.com/maps/search/?api=1&query=47.1222908,15.3583734"
Rumpold,HVO_TANKSTELLE,47.470057,15.351877,,"https://www.google.com/maps/search/?api=1&query=47.470057,15.3518767"
Rumpold Tankstelle,HVO_TANKSTELLE,47.569837,14.210920,,"https://www.google.com/maps/search/?api=1&query=47.569837,14.2109197"
Rumpold Tankstelle,HVO_TANKSTELLE,47.049512,15.480824,,"https://www.google.com/maps/search/?api=1&query=47.0495115,15.480824"
Rumpold Tankstelle,HVO_TANKSTELLE,47.124005,15.610770,,"https://www.google.com/maps/search/?api=1&query=47.1240048,15.6107704"
Rundel,HVO_TANKSTELLE,47.758290,8.853203,,"https://www.google.com/maps/search/?api=1&query=47.7582903,8.8532033"
Scharr (Icon drücken),HVO_TANKSTELLE,48.719566,9.125656,,"https://www.google.com/maps/search/?api=1&query=48.7195657,9.1256563"
Scheier Tankstelle,HVO_TANKSTELLE,47.268518,9.604009,,"https://www.google.com/maps/search/?api=1&query=47.2685185,9.6040091"
Scheier Tankstelle (LKW / PKW?),HVO_TANKSTELLE,47.309632,9.620092,,"https://www.google.com/maps/search/?api=1&query=47.3096316,9.6200919"
Schindele,HVO_TANKSTELLE,47.790030,9.607725,,"https://www.google.com/maps/search/?api=1&query=47.7900301,9.607725"
Schindele,HVO_TANKSTELLE,48.063186,9.421039,,"https://www.google.com/maps/search/?api=1&query=48.0631863,9.4210391"
Schindele,HVO_TANKSTELLE,47.544954,9.738708,,"https://www.google.com/maps/search/?api=1&query=47.544954,9.7387076"
Schindele,HVO_TANKSTELLE,47.672078,9.529143,,"https://www.google.com/maps/search/?api=1&query=47.6720775,9.529143"
Schindele,HVO_TANKSTELLE,47.534093,9.739310,,"https://www.google.com/maps/search/?api=1&query=47.534093,9.7393101"
Schindele,HVO_TANKSTELLE,47.972641,10.184710,,"https://www.google.com/maps/search/?api=1&query=47.9726412,10.18471"
Schindele PKW + LKW,HVO_TANKSTELLE,47.929139,9.757764,,"https://www.google.com/maps/search/?api=1&query=47.9291385,9.7577636"
SCHMIDT Energie PKW / LKW,HVO_TANKSTELLE,51.612483,8.341960,,"https://www.google.com/maps/search/?api=1&query=51.6124831,8.3419598"
Schonhoff Tankstelle,HVO_TANKSTELLE,52.488912,7.543634,,"https://www.google.com/maps/search/?api=1&query=52.4889125,7.543634"
Schwarz,HVO_TANKSTELLE,50.374437,8.037283,,"https://www.google.com/maps/search/?api=1&query=50.3744367,8.0372826"
Score,HVO_TANKSTELLE,53.360178,7.217502,,"https://www.google.com/maps/search/?api=1&query=53.3601776,7.2175016"
Score,HVO_TANKSTELLE,53.253197,7.528082,,"https://www.google.com/maps/search/?api=1&query=53.2531967,7.5280818"
Score,HVO_TANKSTELLE,53.325417,8.460712,,"https://www.google.com/maps/search/?api=1&query=53.325417,8.4607119"
Score,HVO_TANKSTELLE,53.306646,7.758703,,"https://www.google.com/maps/search/?api=1&query=53.306646,7.7587029"
Score,HVO_TANKSTELLE,52.682512,7.296968,,"https://www.google.com/maps/search/?api=1&query=52.6825118,7.296968"
Score,HVO_TANKSTELLE,53.036309,8.543926,,"https://www.google.com/maps/search/?api=1&query=53.036309,8.5439255"
Score,HVO_TANKSTELLE,53.279018,7.573018,,"https://www.google.com/maps/search/?api=1&query=53.2790177,7.5730176"
Score,HVO_TANKSTELLE,53.528535,7.270721,,"https://www.google.com/maps/search/?api=1&query=53.5285346,7.2707212"
Score,HVO_TANKSTELLE,53.568267,7.242625,,"https://www.google.com/maps/search/?api=1&query=53.5682675,7.2426246"
Score,HVO_TANKSTELLE,53.138412,7.606359,,"https://www.google.com/maps/search/?api=1&query=53.1384122,7.6063594"
Score,HVO_TANKSTELLE,53.126605,8.239983,,"https://www.google.com/maps/search/?api=1&query=53.1266048,8.2399835"
Score,HVO_TANKSTELLE,53.261383,7.552575,,"https://www.google.com/maps/search/?api=1&query=53.2613832,7.5525749"
Score,HVO_TANKSTELLE,53.349069,7.183269,,"https://www.google.com/maps/search/?api=1&query=53.3490692,7.1832688"
Score,HVO_TANKSTELLE,53.475040,7.325327,,"https://www.google.com/maps/search/?api=1&query=53.47504,7.3253273"
Score,HVO_TANKSTELLE,52.357412,10.117012,,"https://www.google.com/maps/search/?api=1&query=52.3574124,10.1170118"
Score,HVO_TANKSTELLE,52.924846,9.246726,,"https://www.google.com/maps/search/?api=1&query=52.924846,9.2467258"
Score,HVO_TANKSTELLE,53.105326,9.397564,,"https://www.google.com/maps/search/?api=1&query=53.1053264,9.3975635"
Shell,HVO_TANKSTELLE,52.283583,6.775176,,"https://www.google.com/maps/search/?api=1&query=52.283583,6.775176"
Shell,HVO_TANKSTELLE,52.762494,6.910030,,"https://www.google.com/maps/search/?api=1&query=52.7624942,6.9100303"
Shell,HVO_TANKSTELLE,52.193021,8.557158,,"https://www.google.com/maps/search/?api=1&query=52.1930212,8.5571585"
Shell ( PKW / LKW ),HVO_TANKSTELLE,51.422597,10.606638,,"https://www.google.com/maps/search/?api=1&query=51.4225974,10.6066376"
Shell (LKW/PKW?),HVO_TANKSTELLE,51.415920,5.756807,,"https://www.google.com/maps/search/?api=1&query=51.41592,5.7568067"
Shell (vermutlich PKW und LKW),HVO_TANKSTELLE,52.999480,6.756238,,"https://www.google.com/maps/search/?api=1&query=52.9994805,6.7562382"
Shell / Buscher Energie,HVO_TANKSTELLE,51.232471,7.193967,,"https://www.google.com/maps/search/?api=1&query=51.2324708,7.1939672"
Shell PKW und LKW,HVO_TANKSTELLE,50.889879,11.867693,,"https://www.google.com/maps/search/?api=1&query=50.8898794,11.8676934"
Shell PKW/ LKW (beides?),HVO_TANKSTELLE,51.006341,5.872358,,"https://www.google.com/maps/search/?api=1&query=51.006341,5.8723583"
Shell Truck,HVO_TANKSTELLE,52.971724,5.936935,,"https://www.google.com/maps/search/?api=1&query=52.9717238,5.9369354"
Shell Truck,HVO_TANKSTELLE,52.737433,6.496916,,"https://www.google.com/maps/search/?api=1&query=52.7374333,6.496916"
Shell Truck,HVO_TANKSTELLE,51.892236,5.828853,,"https://www.google.com/maps/search/?api=1&query=51.8922357,5.8288534"
Shell Truck,HVO_TANKSTELLE,52.773807,6.445519,,"https://www.google.com/maps/search/?api=1&query=52.7738072,6.4455191"
Shell Truck,HVO_TANKSTELLE,52.246334,6.593083,,"https://www.google.com/maps/search/?api=1&query=52.2463338,6.5930835"
Shell Truck,HVO_TANKSTELLE,52.178967,5.983495,,"https://www.google.com/maps/search/?api=1&query=52.1789669,5.9834954"
Shell Truck,HVO_TANKSTELLE,51.616355,5.520884,,"https://www.google.com/maps/search/?api=1&query=51.6163547,5.5208844"
Shell Truck,HVO_TANKSTELLE,51.605158,5.524479,,"https://www.google.com/maps/search/?api=1&query=51.6051583,5.5244786"
Shell Truck,HVO_TANKSTELLE,52.557027,5.885963,,"https://www.google.com/maps/search/?api=1&query=52.5570273,5.8859632"
Shell Truck,HVO_TANKSTELLE,52.362933,5.522411,,"https://www.google.com/maps/search/?api=1&query=52.3629331,5.5224109"
Shell Truck,HVO_TANKSTELLE,50.694558,5.627096,,"https://www.google.com/maps/search/?api=1&query=50.6945575,5.6270956"
Shell Truck,HVO_TANKSTELLE,53.101533,6.133320,,"https://www.google.com/maps/search/?api=1&query=53.1015329,6.1333203"
Shell Truck,HVO_TANKSTELLE,52.240882,6.192839,,"https://www.google.com/maps/search/?api=1&query=52.2408822,6.1928389"
Shell Truck,HVO_TANKSTELLE,49.676261,12.601342,,"https://www.google.com/maps/search/?api=1&query=49.6762606,12.6013424"
Shell Truck,HVO_TANKSTELLE,47.483635,12.028787,,"https://www.google.com/maps/search/?api=1&query=47.4836348,12.0287874"
Shell Truck ( PKW + LKW ),HVO_TANKSTELLE,48.625853,12.320172,,"https://www.google.com/maps/search/?api=1&query=48.6258535,12.3201718"
Shell Truck (PKW?),HVO_TANKSTELLE,52.252353,6.185636,,"https://www.google.com/maps/search/?api=1&query=52.2523531,6.1856358"
Shell Truck (PKW?),HVO_TANKSTELLE,48.766068,13.045517,,"https://www.google.com/maps/search/?api=1&query=48.7660684,13.0455172"
Shell Truck (und ältere PKW),HVO_TANKSTELLE,51.266865,5.722891,,"https://www.google.com/maps/search/?api=1&query=51.2668649,5.7228911"
Shell Truck (und ältere PKW),HVO_TANKSTELLE,51.767772,5.835258,,"https://www.google.com/maps/search/?api=1&query=51.7677721,5.8352576"
Shell Truck und ältere PKW,HVO_TANKSTELLE,53.171456,6.735499,,"https://www.google.com/maps/search/?api=1&query=53.1714558,6.7354989"
Shell Truck und ältere PKW,HVO_TANKSTELLE,50.942359,5.703360,,"https://www.google.com/maps/search/?api=1&query=50.942359,5.7033602"
Shell Truck und ältere PKW,HVO_TANKSTELLE,51.390645,6.137381,,"https://www.google.com/maps/search/?api=1&query=51.3906453,6.1373809"
Shell Truck und ältere PKW,HVO_TANKSTELLE,51.547973,5.990579,,"https://www.google.com/maps/search/?api=1&query=51.5479727,5.9905788"
Shell Truck und ältere PKW,HVO_TANKSTELLE,52.168835,5.564045,,"https://www.google.com/maps/search/?api=1&query=52.1688351,5.5640447"
Shell Truck und ältere PKW,HVO_TANKSTELLE,52.026116,5.621309,,"https://www.google.com/maps/search/?api=1&query=52.0261161,5.621309"
Shell Truck und ältere PKW,HVO_TANKSTELLE,51.964166,6.022894,,"https://www.google.com/maps/search/?api=1&query=51.9641662,6.0228944"
Shell Truck und ältere PKW,HVO_TANKSTELLE,52.377678,6.281120,,"https://www.google.com/maps/search/?api=1&query=52.3776776,6.2811197"
Shell Truck und PKW,HVO_TANKSTELLE,52.243075,6.765143,,"https://www.google.com/maps/search/?api=1&query=52.243075,6.7651427"
Shell Truck und PKW,HVO_TANKSTELLE,51.936995,6.105879,,"https://www.google.com/maps/search/?api=1&query=51.936995,6.1058786"
SnelTank,HVO_TANKSTELLE,52.371440,6.018882,,"https://www.google.com/maps/search/?api=1&query=52.3714402,6.0188819"
Socar,HVO_TANKSTELLE,47.329955,8.174601,,"https://www.google.com/maps/search/?api=1&query=47.3299555,8.1746006"
Socar,HVO_TANKSTELLE,47.530607,7.638655,,"https://www.google.com/maps/search/?api=1&query=47.5306068,7.6386553"
Socar,HVO_TANKSTELLE,47.499071,7.722521,,"https://www.google.com/maps/search/?api=1&query=47.4990705,7.7225212"
Socar,HVO_TANKSTELLE,47.429062,8.558997,,"https://www.google.com/maps/search/?api=1&query=47.4290624,8.5589972"
Socar,HVO_TANKSTELLE,47.119246,8.375102,,"https://www.google.com/maps/search/?api=1&query=47.1192463,8.3751022"
Socar,HVO_TANKSTELLE,47.464433,8.526554,,"https://www.google.com/maps/search/?api=1&query=47.4644329,8.5265539"
Socar,HVO_TANKSTELLE,47.271734,8.438783,,"https://www.google.com/maps/search/?api=1&query=47.2717341,8.4387826"
Socar (ab Mitte Nov 25),HVO_TANKSTELLE,47.004284,7.462794,,"https://www.google.com/maps/search/?api=1&query=47.0042839,7.4627942"
Speed Discount,HVO_TANKSTELLE,48.327778,14.304570,,"https://www.google.com/maps/search/?api=1&query=48.3277775,14.3045704"
Sprint,HVO_TANKSTELLE,52.534029,13.444796,,"https://www.google.com/maps/search/?api=1&query=52.5340288,13.4447958"
Sprint,HVO_TANKSTELLE,52.433541,13.242388,,"https://www.google.com/maps/search/?api=1&query=52.4335414,13.242388"
Sprint,HVO_TANKSTELLE,52.456130,13.621276,,"https://www.google.com/maps/search/?api=1&query=52.4561303,13.6212756"
Sprint,HVO_TANKSTELLE,52.429965,13.312322,,"https://www.google.com/maps/search/?api=1&query=52.4299654,13.3123224"
Sprint,HVO_TANKSTELLE,52.546372,13.607123,,"https://www.google.com/maps/search/?api=1&query=52.5463722,13.6071226"
Sprint,HVO_TANKSTELLE,52.480625,13.910250,,"https://www.google.com/maps/search/?api=1&query=52.4806253,13.9102498"
Sprint,HVO_TANKSTELLE,52.111211,13.143613,,"https://www.google.com/maps/search/?api=1&query=52.1112112,13.1436132"
SPrint (ab 12.11.24),HVO_TANKSTELLE,52.571191,13.442907,,"https://www.google.com/maps/search/?api=1&query=52.5711908,13.4429067"
Stakemeier Tankstelle PKW + LKW (Hinweis lesen!),HVO_TANKSTELLE,51.653493,8.358188,,"https://www.google.com/maps/search/?api=1&query=51.6534929,8.3581884"
Star,HVO_TANKSTELLE,53.027540,8.973653,,"https://www.google.com/maps/search/?api=1&query=53.0275398,8.9736527"
Star,HVO_TANKSTELLE,50.956701,12.124695,,"https://www.google.com/maps/search/?api=1&query=50.9567011,12.1246951"
Star,HVO_TANKSTELLE,53.537499,10.083643,,"https://www.google.com/maps/search/?api=1&query=53.5374991,10.0836428"
Star,HVO_TANKSTELLE,49.594289,8.483093,,"https://www.google.com/maps/search/?api=1&query=49.5942889,8.4830926"
Star,HVO_TANKSTELLE,51.961067,12.100187,,"https://www.google.com/maps/search/?api=1&query=51.9610675,12.1001868"
Star,HVO_TANKSTELLE,52.500786,13.732204,,"https://www.google.com/maps/search/?api=1&query=52.5007864,13.7322041"
Star Tankstelle,HVO_TANKSTELLE,53.380150,10.769322,,"https://www.google.com/maps/search/?api=1&query=53.3801501,10.7693223"
Starkstelle,HVO_TANKSTELLE,48.552383,10.685984,,"https://www.google.com/maps/search/?api=1&query=48.5523826,10.6859835"
Steigleiter Tankstelle / Shell,HVO_TANKSTELLE,49.334058,8.443128,,"https://www.google.com/maps/search/?api=1&query=49.3340578,8.4431282"
Stoffmehl Tankstelle,HVO_TANKSTELLE,51.523195,6.350159,,"https://www.google.com/maps/search/?api=1&query=51.5231953,6.3501585"
Storz Tankstelle,HVO_TANKSTELLE,48.303453,8.576121,,"https://www.google.com/maps/search/?api=1&query=48.3034532,8.5761206"
Straßburger Energy,HVO_TANKSTELLE,49.199914,12.520020,,"https://www.google.com/maps/search/?api=1&query=49.1999135,12.5200202"
Strolch Tankstelle,HVO_TANKSTELLE,48.849213,10.374968,,"https://www.google.com/maps/search/?api=1&query=48.8492127,10.3749678"
Südwest Energie,HVO_TANKSTELLE,48.507798,9.220184,,"https://www.google.com/maps/search/?api=1&query=48.5077985,9.2201837"
Super Tank,HVO_TANKSTELLE,52.543180,5.710812,,"https://www.google.com/maps/search/?api=1&query=52.5431797,5.7108118"
Super Tank,HVO_TANKSTELLE,52.626375,6.054420,,"https://www.google.com/maps/search/?api=1&query=52.6263754,6.0544197"
SuperTank,HVO_TANKSTELLE,52.539334,5.521008,,"https://www.google.com/maps/search/?api=1&query=52.5393343,5.5210084"
SuperTank,HVO_TANKSTELLE,52.467175,5.990759,,"https://www.google.com/maps/search/?api=1&query=52.4671751,5.9907591"
SVG,HVO_TANKSTELLE,53.544470,10.038976,,"https://www.google.com/maps/search/?api=1&query=53.54447,10.0389764"
SVP,HVO_TANKSTELLE,50.742396,7.077931,,"https://www.google.com/maps/search/?api=1&query=50.7423955,7.0779306"
T-Energy,HVO_TANKSTELLE,51.919024,5.725101,,"https://www.google.com/maps/search/?api=1&query=51.9190238,5.725101"
T-Energy,HVO_TANKSTELLE,52.776786,6.844776,,"https://www.google.com/maps/search/?api=1&query=52.7767859,6.844776"
Tamoil,HVO_TANKSTELLE,52.317189,6.350929,,"https://www.google.com/maps/search/?api=1&query=52.3171891,6.3509291"
Tamoil,HVO_TANKSTELLE,51.635099,5.937397,,"https://www.google.com/maps/search/?api=1&query=51.635099,5.9373968"
Tamoil Akkrum,HVO_TANKSTELLE,53.038460,5.848748,,"https://www.google.com/maps/search/?api=1&query=53.0384596,5.8487476"
Tamoil Eindhoven,HVO_TANKSTELLE,51.424182,5.506295,,"https://www.google.com/maps/search/?api=1&query=51.4241822,5.5062953"
Tamoil Express Drachten Tussendiep,HVO_TANKSTELLE,53.107287,6.063363,,"https://www.google.com/maps/search/?api=1&query=53.1072871,6.0633631"
Tamoil Express Eindhoven,HVO_TANKSTELLE,51.435435,5.515602,,"https://www.google.com/maps/search/?api=1&query=51.4354351,5.5156018"
Tamoil Express Eindhoven,HVO_TANKSTELLE,51.443425,5.513058,,"https://www.google.com/maps/search/?api=1&query=51.4434247,5.5130583"
Tamoil Express Emmeloord,HVO_TANKSTELLE,52.703224,5.746531,,"https://www.google.com/maps/search/?api=1&query=52.7032244,5.7465307"
Tamoil Express Groningen,HVO_TANKSTELLE,53.208269,6.539309,,"https://www.google.com/maps/search/?api=1&query=53.2082694,6.5393088"
Tamoil Express Kootwijkerbroek,HVO_TANKSTELLE,52.152893,5.669038,,"https://www.google.com/maps/search/?api=1&query=52.1528934,5.6690382"
Tamoil Express Leeuwarden,HVO_TANKSTELLE,53.195647,5.769563,,"https://www.google.com/maps/search/?api=1&query=53.1956471,5.7695633"
Tamoil Express Lomm,HVO_TANKSTELLE,51.448697,6.174138,,"https://www.google.com/maps/search/?api=1&query=51.4486973,6.1741379"
Tamoil Express Maastricht,HVO_TANKSTELLE,50.853760,5.665120,,"https://www.google.com/maps/search/?api=1&query=50.8537597,5.6651199"
Tamoil Express Marrum,HVO_TANKSTELLE,53.327159,5.803814,,"https://www.google.com/maps/search/?api=1&query=53.3271586,5.8038141"
Tamoil Express Meeden,HVO_TANKSTELLE,53.134591,6.901259,,"https://www.google.com/maps/search/?api=1&query=53.1345909,6.9012589"
Tamoil Express Meppel,HVO_TANKSTELLE,52.711259,6.197737,,"https://www.google.com/maps/search/?api=1&query=52.7112594,6.197737"
Tamoil Express Ommen,HVO_TANKSTELLE,52.511197,6.419883,,"https://www.google.com/maps/search/?api=1&query=52.5111967,6.4198826"
Tamoil Express Scheemda,HVO_TANKSTELLE,53.163461,6.993027,,"https://www.google.com/maps/search/?api=1&query=53.1634606,6.9930271"
Tamoil Express Suameer,HVO_TANKSTELLE,53.181554,5.999356,,"https://www.google.com/maps/search/?api=1&query=53.181554,5.9993558"
Tamoil Express Veghel,HVO_TANKSTELLE,51.623585,5.559724,,"https://www.google.com/maps/search/?api=1&query=51.6235854,5.5597237"
Tamoil Express Winsum,HVO_TANKSTELLE,53.155696,5.627004,,"https://www.google.com/maps/search/?api=1&query=53.1556963,5.6270037"
Tamoil Express Wolvega,HVO_TANKSTELLE,52.879880,5.991931,,"https://www.google.com/maps/search/?api=1&query=52.8798805,5.9919311"
Tamoil Express Zeeland,HVO_TANKSTELLE,51.704341,5.677276,,"https://www.google.com/maps/search/?api=1&query=51.7043407,5.6772759"
Tamoil Heerlen,HVO_TANKSTELLE,50.890872,5.999960,,"https://www.google.com/maps/search/?api=1&query=50.8908723,5.9999601"
Tamoil Heino,HVO_TANKSTELLE,52.444070,6.230899,,"https://www.google.com/maps/search/?api=1&query=52.44407,6.2308994"
Tamoil Wesepe,HVO_TANKSTELLE,52.332430,6.205440,,"https://www.google.com/maps/search/?api=1&query=52.3324304,6.2054397"
Tamoil Windesheim,HVO_TANKSTELLE,52.450086,6.131879,,"https://www.google.com/maps/search/?api=1&query=52.450086,6.1318788"
TanGo,HVO_TANKSTELLE,51.915715,5.845763,,"https://www.google.com/maps/search/?api=1&query=51.9157147,5.8457625"
Tango / Orange Gas,HVO_TANKSTELLE,52.249811,6.207289,,"https://www.google.com/maps/search/?api=1&query=52.2498109,6.207289"
Tank Easy,HVO_TANKSTELLE,51.400332,6.068915,,"https://www.google.com/maps/search/?api=1&query=51.4003318,6.0689154"
Tank S,HVO_TANKSTELLE,53.135312,6.419623,,"https://www.google.com/maps/search/?api=1&query=53.1353115,6.4196232"
Tank S De Munt,HVO_TANKSTELLE,52.717283,5.784686,,"https://www.google.com/maps/search/?api=1&query=52.7172826,5.7846863"
Tankcenter Ziehl PKW und LKW,HVO_TANKSTELLE,49.543604,8.337136,,"https://www.google.com/maps/search/?api=1&query=49.5436043,8.3371364"
Tankhof Grün,HVO_TANKSTELLE,48.127279,7.825521,,"https://www.google.com/maps/search/?api=1&query=48.1272786,7.825521"
Tankhof Grün,HVO_TANKSTELLE,48.272819,7.788799,,"https://www.google.com/maps/search/?api=1&query=48.2728194,7.7887986"
Tankhof Sauerlach,HVO_TANKSTELLE,47.971512,11.664315,,"https://www.google.com/maps/search/?api=1&query=47.971512,11.664315"
Tankpoint,HVO_TANKSTELLE,53.124301,7.980135,,"https://www.google.com/maps/search/?api=1&query=53.1243013,7.9801353"
Tankpool 24,HVO_TANKSTELLE,51.709245,8.714570,,"https://www.google.com/maps/search/?api=1&query=51.7092447,8.7145704"
Tankpool LKW / (PKW?),HVO_TANKSTELLE,53.007890,8.702569,,"https://www.google.com/maps/search/?api=1&query=53.0078897,8.7025693"
Tankpool LKW / PKW?,HVO_TANKSTELLE,52.308580,8.975579,,"https://www.google.com/maps/search/?api=1&query=52.3085798,8.975579"
Tankpool LKW und PKW?,HVO_TANKSTELLE,53.025325,8.864952,,"https://www.google.com/maps/search/?api=1&query=53.0253254,8.8649522"
Tankpool24 ( LKW / PKW? ),HVO_TANKSTELLE,49.352005,11.167016,,"https://www.google.com/maps/search/?api=1&query=49.3520055,11.167016"
Tankpool24 ( PKW + LKW ),HVO_TANKSTELLE,50.375115,7.387546,,"https://www.google.com/maps/search/?api=1&query=50.3751149,7.3875459"
Tankpool24 ( Truck + PKW  ),HVO_TANKSTELLE,51.635091,12.218570,,"https://www.google.com/maps/search/?api=1&query=51.6350909,12.2185704"
Tankpool24 ( Truck + PKW ),HVO_TANKSTELLE,52.813033,8.186086,,"https://www.google.com/maps/search/?api=1&query=52.8130334,8.1860855"
Tankpool24 (LKW und PKW),HVO_TANKSTELLE,48.891327,9.157645,,"https://www.google.com/maps/search/?api=1&query=48.8913266,9.1576452"
Tankpool24 (PKW/LKW?),HVO_TANKSTELLE,48.293880,9.093701,,"https://www.google.com/maps/search/?api=1&query=48.2938803,9.0937005"
Tankpool24 LKW u PKW,HVO_TANKSTELLE,50.912500,12.061549,,"https://www.google.com/maps/search/?api=1&query=50.9124999,12.0615489"
Tankpool24 LKW und PKW?,HVO_TANKSTELLE,51.326552,6.212852,,"https://www.google.com/maps/search/?api=1&query=51.3265522,6.2128521"
Tankpool24 PKW und LKW,HVO_TANKSTELLE,52.164700,9.972109,,"https://www.google.com/maps/search/?api=1&query=52.1646996,9.9721086"
Tankpool24 PKW und LKW,HVO_TANKSTELLE,52.318695,7.433017,,"https://www.google.com/maps/search/?api=1&query=52.3186949,7.4330173"
Tankpool24 PKW und LKW,HVO_TANKSTELLE,53.247133,10.469795,,"https://www.google.com/maps/search/?api=1&query=53.2471329,10.4697947"
Tankpool24 PKW und LKW,HVO_TANKSTELLE,50.799407,12.849954,,"https://www.google.com/maps/search/?api=1&query=50.7994065,12.849954"
Tankpool24 Truck,HVO_TANKSTELLE,53.279252,9.280518,,"https://www.google.com/maps/search/?api=1&query=53.2792518,9.2805178"
Tankpool24 Truck,HVO_TANKSTELLE,52.994308,9.927257,,"https://www.google.com/maps/search/?api=1&query=52.9943079,9.927257"
Tankpool24 Truck,HVO_TANKSTELLE,53.500617,9.950321,,"https://www.google.com/maps/search/?api=1&query=53.5006168,9.9503211"
Tankpool24 Truck,HVO_TANKSTELLE,54.177847,9.942163,,"https://www.google.com/maps/search/?api=1&query=54.1778466,9.9421632"
Tankpool24 Truck,HVO_TANKSTELLE,52.015624,8.623419,,"https://www.google.com/maps/search/?api=1&query=52.0156239,8.6234189"
Tankpool24 Truck,HVO_TANKSTELLE,49.698477,11.055093,,"https://www.google.com/maps/search/?api=1&query=49.6984772,11.0550932"
Tankpool24 Truck,HVO_TANKSTELLE,51.408432,12.303929,,"https://www.google.com/maps/search/?api=1&query=51.408432,12.3039291"
Tankpool24 Truck,HVO_TANKSTELLE,52.711184,13.116195,,"https://www.google.com/maps/search/?api=1&query=52.7111843,13.1161949"
Tankpool24 Truck,HVO_TANKSTELLE,47.972979,8.836497,,"https://www.google.com/maps/search/?api=1&query=47.9729786,8.8364971"
Tankpool24 Truck,HVO_TANKSTELLE,52.432256,9.683149,,"https://www.google.com/maps/search/?api=1&query=52.4322564,9.683149"
Tankpool24 Truck,HVO_TANKSTELLE,49.154741,9.214006,,"https://www.google.com/maps/search/?api=1&query=49.1547408,9.2140064"
Tankpool24 Truck,HVO_TANKSTELLE,51.723153,9.977519,,"https://www.google.com/maps/search/?api=1&query=51.7231526,9.9775194"
Tankpool24 Truck,HVO_TANKSTELLE,52.295801,13.279643,,"https://www.google.com/maps/search/?api=1&query=52.2958012,13.2796429"
Tankpool24 Truck,HVO_TANKSTELLE,52.420803,9.722299,,"https://www.google.com/maps/search/?api=1&query=52.4208028,9.722299"
Tankpool24 Truck,HVO_TANKSTELLE,49.297175,9.367167,,"https://www.google.com/maps/search/?api=1&query=49.2971747,9.3671666"
Tankpool24 Truck,HVO_TANKSTELLE,51.196946,7.382229,,"https://www.google.com/maps/search/?api=1&query=51.196946,7.3822286"
Tankpool24 Truck,HVO_TANKSTELLE,49.389808,11.059788,,"https://www.google.com/maps/search/?api=1&query=49.3898082,11.0597885"
Tankpool24 Truck,HVO_TANKSTELLE,51.112319,13.191567,,"https://www.google.com/maps/search/?api=1&query=51.1123189,13.1915675"
Tankpool24 Truck,HVO_TANKSTELLE,48.999749,12.146890,,"https://www.google.com/maps/search/?api=1&query=48.9997492,12.1468899"
Tankpool24 Truck ( LKW ),HVO_TANKSTELLE,52.732344,13.217446,,"https://www.google.com/maps/search/?api=1&query=52.7323444,13.2174456"
Tankpool24 Truck ( PKW + LKW ),HVO_TANKSTELLE,52.564404,12.973140,,"https://www.google.com/maps/search/?api=1&query=52.5644042,12.9731401"
Tankpool24 Truck (evtl auch PKW?),HVO_TANKSTELLE,51.837327,9.446325,,"https://www.google.com/maps/search/?api=1&query=51.8373266,9.4463249"
Tankpool24 Truck (evtl auch PKW),HVO_TANKSTELLE,51.879112,10.153333,,"https://www.google.com/maps/search/?api=1&query=51.8791125,10.1533329"
Tankpool24 Truck (evtl auch PKW),HVO_TANKSTELLE,53.592821,9.909011,,"https://www.google.com/maps/search/?api=1&query=53.5928212,9.9090112"
Tankpool24 Truck (evtl auch PKW),HVO_TANKSTELLE,51.337853,12.469538,,"https://www.google.com/maps/search/?api=1&query=51.3378526,12.4695384"
Tankpool24 Truck (evtl auch PKW),HVO_TANKSTELLE,53.340159,10.229132,,"https://www.google.com/maps/search/?api=1&query=53.3401586,10.229132"
Tankpool24 Truck (evtl auch PKW),HVO_TANKSTELLE,52.208041,8.881675,,"https://www.google.com/maps/search/?api=1&query=52.2080414,8.8816746"
Tankpool24 Truck (evtl PKW?),HVO_TANKSTELLE,51.533977,7.712660,,"https://www.google.com/maps/search/?api=1&query=51.5339766,7.7126597"
Tankpool24 Truck (evtl PKW),HVO_TANKSTELLE,51.065524,8.971360,,"https://www.google.com/maps/search/?api=1&query=51.0655239,8.9713598"
Tankpool24 Truck (evtl PKW),HVO_TANKSTELLE,47.742144,9.576382,,"https://www.google.com/maps/search/?api=1&query=47.7421439,9.5763825"
Tankpool24 Truck (PKW?),HVO_TANKSTELLE,48.299787,8.627381,,"https://www.google.com/maps/search/?api=1&query=48.2997868,8.6273809"
Tankpool24 Truck (PKW?),HVO_TANKSTELLE,52.213996,8.834220,,"https://www.google.com/maps/search/?api=1&query=52.2139962,8.8342201"
Tankpool24 Truck (PKW?),HVO_TANKSTELLE,49.989713,10.553352,,"https://www.google.com/maps/search/?api=1&query=49.9897125,10.5533522"
Tankpool24 Truck (PKW?),HVO_TANKSTELLE,50.774443,9.580108,,"https://www.google.com/maps/search/?api=1&query=50.7744432,9.5801083"
Tankpool24 Truck (PKW?),HVO_TANKSTELLE,51.621918,7.855884,,"https://www.google.com/maps/search/?api=1&query=51.6219183,7.8558843"
Tankpool24 Truck (PKW?),HVO_TANKSTELLE,53.586955,8.558642,,"https://www.google.com/maps/search/?api=1&query=53.5869551,8.5586417"
Tankpool24 Truck (PKW?),HVO_TANKSTELLE,50.983129,11.128110,,"https://www.google.com/maps/search/?api=1&query=50.9831286,11.1281097"
Tankpool24 Truck und ältere PKW,HVO_TANKSTELLE,52.278135,9.348367,,"https://www.google.com/maps/search/?api=1&query=52.2781351,9.3483666"
Tankpunkt Pludra,HVO_TANKSTELLE,52.254548,7.380147,,"https://www.google.com/maps/search/?api=1&query=52.2545483,7.3801471"
Tankpunkt Pludra,HVO_TANKSTELLE,52.273836,7.412810,,"https://www.google.com/maps/search/?api=1&query=52.2738364,7.4128105"
Tankrintel PKW + LKW,HVO_TANKSTELLE,49.048869,11.796547,,"https://www.google.com/maps/search/?api=1&query=49.0488694,11.7965466"
Tankstation Waldmichelbach,HVO_TANKSTELLE,49.570237,8.841064,,"https://www.google.com/maps/search/?api=1&query=49.5702366,8.8410642"
Tankstelle,HVO_TANKSTELLE,47.225725,9.198315,,"https://www.google.com/maps/search/?api=1&query=47.2257248,9.1983152"
Tankstelle Ahlert,HVO_TANKSTELLE,52.138118,7.557770,,"https://www.google.com/maps/search/?api=1&query=52.1381177,7.5577697"
Tankstelle Ahlert,HVO_TANKSTELLE,52.109726,7.612215,,"https://www.google.com/maps/search/?api=1&query=52.1097257,7.6122149"
Tankstelle am Marktkauf,HVO_TANKSTELLE,51.481407,10.802483,,"https://www.google.com/maps/search/?api=1&query=51.4814067,10.8024834"
Tankstelle Bayerwald,HVO_TANKSTELLE,48.716253,13.531817,,"https://www.google.com/maps/search/?api=1&query=48.7162533,13.5318168"
Tankstelle Bodenstab,HVO_TANKSTELLE,53.701304,7.157388,,"https://www.google.com/maps/search/?api=1&query=53.7013037,7.157388"
Tankstelle Brämswig,HVO_TANKSTELLE,52.658187,8.187674,,"https://www.google.com/maps/search/?api=1&query=52.6581874,8.187674"
Tankstelle Geiger,HVO_TANKSTELLE,49.257228,10.614896,,"https://www.google.com/maps/search/?api=1&query=49.2572279,10.6148961"
Tankstelle Graf,HVO_TANKSTELLE,49.516521,11.006013,,"https://www.google.com/maps/search/?api=1&query=49.5165211,11.0060128"
Tankstelle Heinrich Fip,HVO_TANKSTELLE,52.307250,8.018340,,"https://www.google.com/maps/search/?api=1&query=52.3072502,8.0183397"
Tankstelle Heinrich Fip ( LKW / PKW? ),HVO_TANKSTELLE,52.263158,7.880267,,"https://www.google.com/maps/search/?api=1&query=52.2631582,7.880267"
Tankstelle Hempelmann,HVO_TANKSTELLE,52.124574,8.669798,,"https://www.google.com/maps/search/?api=1&query=52.1245738,8.669798"
Tankstelle Honsel,HVO_TANKSTELLE,51.364764,10.845136,,"https://www.google.com/maps/search/?api=1&query=51.3647637,10.8451361"
Tankstelle Jung,HVO_TANKSTELLE,50.703096,8.477911,,"https://www.google.com/maps/search/?api=1&query=50.7030957,8.4779109"
Tankstelle Krenn,HVO_TANKSTELLE,47.831728,11.478620,,"https://www.google.com/maps/search/?api=1&query=47.8317285,11.4786205"
Tankstelle Lanfer (PKW + LKW),HVO_TANKSTELLE,52.667749,7.484178,,"https://www.google.com/maps/search/?api=1&query=52.6677492,7.484178"
Tankstelle Lang,HVO_TANKSTELLE,48.880268,12.612222,,"https://www.google.com/maps/search/?api=1&query=48.8802685,12.6122225"
Tankstelle Leitner,HVO_TANKSTELLE,47.002041,14.752398,,"https://www.google.com/maps/search/?api=1&query=47.0020411,14.7523985"
Tankstelle Leitner (Truck),HVO_TANKSTELLE,47.008723,15.440278,,"https://www.google.com/maps/search/?api=1&query=47.0087231,15.4402777"
Tankstelle Lenz,HVO_TANKSTELLE,49.470501,8.994752,,"https://www.google.com/maps/search/?api=1&query=49.4705015,8.9947517"
Tankstelle Lietmann,HVO_TANKSTELLE,51.982411,8.052356,,"https://www.google.com/maps/search/?api=1&query=51.9824105,8.0523563"
Tankstelle Picker und Kaiser,HVO_TANKSTELLE,52.386994,8.623224,,"https://www.google.com/maps/search/?api=1&query=52.386994,8.6232241"
Tankstelle Reiner,HVO_TANKSTELLE,48.696569,13.028984,,"https://www.google.com/maps/search/?api=1&query=48.6965686,13.0289836"
Tankstelle Rossnagel,HVO_TANKSTELLE,49.122734,8.572574,,"https://www.google.com/maps/search/?api=1&query=49.1227343,8.5725737"
Tankstelle Rühle,HVO_TANKSTELLE,48.752654,9.989001,,"https://www.google.com/maps/search/?api=1&query=48.7526535,9.989001"
Tankstelle Sattler,HVO_TANKSTELLE,50.053835,8.976308,,"https://www.google.com/maps/search/?api=1&query=50.0538351,8.9763081"
Tankstelle Sattler,HVO_TANKSTELLE,49.929494,9.291209,,"https://www.google.com/maps/search/?api=1&query=49.9294944,9.2912092"
Tankstelle Steigleiter,HVO_TANKSTELLE,49.323934,8.444210,,"https://www.google.com/maps/search/?api=1&query=49.3239335,8.4442098"
Tankstelle Ultsch,HVO_TANKSTELLE,49.912640,10.883350,,"https://www.google.com/maps/search/?api=1&query=49.9126402,10.8833501"
Tankstelle W.Dorst,HVO_TANKSTELLE,50.295686,10.189538,,"https://www.google.com/maps/search/?api=1&query=50.2956863,10.189538"
"Tankstelle Webersdorfer (PKW + LKW, Icon lesen!)",HVO_TANKSTELLE,47.834535,13.065056,,"https://www.google.com/maps/search/?api=1&query=47.8345346,13.0650563"
Tankstelle Winkler PKW/LKW,HVO_TANKSTELLE,49.553810,8.591469,,"https://www.google.com/maps/search/?api=1&query=49.5538103,8.5914687"
Tankstelle Wurm,HVO_TANKSTELLE,47.993763,12.535349,,"https://www.google.com/maps/search/?api=1&query=47.993763,12.5353488"
TanQyou,HVO_TANKSTELLE,53.205122,5.984715,,"https://www.google.com/maps/search/?api=1&query=53.2051223,5.9847152"
TanQyou,HVO_TANKSTELLE,52.527450,6.222726,,"https://www.google.com/maps/search/?api=1&query=52.5274496,6.2227261"
TAS,HVO_TANKSTELLE,52.150254,9.738224,,"https://www.google.com/maps/search/?api=1&query=52.1502544,9.7382235"
TAS,HVO_TANKSTELLE,51.984072,9.808197,,"https://www.google.com/maps/search/?api=1&query=51.9840719,9.8081973"
TAS,HVO_TANKSTELLE,52.232661,9.422210,,"https://www.google.com/maps/search/?api=1&query=52.2326611,9.4222104"
TAS Tankstelle,HVO_TANKSTELLE,52.359513,8.900100,,"https://www.google.com/maps/search/?api=1&query=52.3595134,8.9001001"
TAS Tankstelle,HVO_TANKSTELLE,51.783457,9.370634,,"https://www.google.com/maps/search/?api=1&query=51.7834569,9.3706335"
TAS Tankstelle,HVO_TANKSTELLE,52.134683,10.334492,,"https://www.google.com/maps/search/?api=1&query=52.1346833,10.3344916"
TAS Tankstelle,HVO_TANKSTELLE,51.601048,9.539321,,"https://www.google.com/maps/search/?api=1&query=51.601048,9.5393213"
TAS Tankstellen (für PKW und LKW),HVO_TANKSTELLE,51.702850,9.957593,,"https://www.google.com/maps/search/?api=1&query=51.7028502,9.9575928"
Team,HVO_TANKSTELLE,54.763321,9.449332,,"https://www.google.com/maps/search/?api=1&query=54.763321,9.4493321"
Team Tankstelle,HVO_TANKSTELLE,54.337201,10.106557,,"https://www.google.com/maps/search/?api=1&query=54.3372013,10.1065567"
Team Tankstelle,HVO_TANKSTELLE,52.130301,11.678613,,"https://www.google.com/maps/search/?api=1&query=52.1303014,11.6786134"
Team Tankstelle,HVO_TANKSTELLE,53.518999,12.714405,,"https://www.google.com/maps/search/?api=1&query=53.5189989,12.7144045"
Team Tankstelle (PKW und LKW),HVO_TANKSTELLE,54.321085,9.626744,,"https://www.google.com/maps/search/?api=1&query=54.3210852,9.6267442"
Teams,HVO_TANKSTELLE,54.542275,9.580216,,"https://www.google.com/maps/search/?api=1&query=54.5422754,9.5802163"
Teams Tankstelle,HVO_TANKSTELLE,53.443939,11.212113,,"https://www.google.com/maps/search/?api=1&query=53.4439391,11.2121131"
Texaco,HVO_TANKSTELLE,52.966952,6.093387,,"https://www.google.com/maps/search/?api=1&query=52.9669522,6.0933869"
Texaco,HVO_TANKSTELLE,53.101397,7.146151,,"https://www.google.com/maps/search/?api=1&query=53.1013974,7.1461507"
Texaco / AVIA,HVO_TANKSTELLE,52.298008,6.925581,,"https://www.google.com/maps/search/?api=1&query=52.2980078,6.925581"
Texaco Zwartsluis,HVO_TANKSTELLE,52.646067,6.083722,,"https://www.google.com/maps/search/?api=1&query=52.6460674,6.0837224"
TinQ,HVO_TANKSTELLE,51.885573,5.584470,,"https://www.google.com/maps/search/?api=1&query=51.8855733,5.5844697"
TinQ,HVO_TANKSTELLE,52.096834,6.152994,,"https://www.google.com/maps/search/?api=1&query=52.096834,6.152994"
TinQ,HVO_TANKSTELLE,52.984640,6.983854,,"https://www.google.com/maps/search/?api=1&query=52.9846396,6.9838537"
TinQ,HVO_TANKSTELLE,53.203234,6.558549,,"https://www.google.com/maps/search/?api=1&query=53.2032344,6.5585486"
TK Tankstelle,HVO_TANKSTELLE,47.147517,9.819502,,"https://www.google.com/maps/search/?api=1&query=47.1475175,9.819502"
TK Tankstelle,HVO_TANKSTELLE,47.543091,9.751430,,"https://www.google.com/maps/search/?api=1&query=47.5430908,9.7514304"
Tom´s Tankstelle,HVO_TANKSTELLE,47.842232,12.348201,,"https://www.google.com/maps/search/?api=1&query=47.8422324,12.3482007"
Total,HVO_TANKSTELLE,53.163420,6.144121,,"https://www.google.com/maps/search/?api=1&query=53.1634197,6.1441206"
Total,HVO_TANKSTELLE,52.400909,9.693547,,"https://www.google.com/maps/search/?api=1&query=52.4009094,9.6935466"
Total,HVO_TANKSTELLE,52.676374,9.680934,,"https://www.google.com/maps/search/?api=1&query=52.6763744,9.6809342"
Total,HVO_TANKSTELLE,52.102373,8.681946,,"https://www.google.com/maps/search/?api=1&query=52.1023734,8.6819463"
Total,HVO_TANKSTELLE,51.217353,5.584822,,"https://www.google.com/maps/search/?api=1&query=51.2173529,5.5848217"
Total PKW,HVO_TANKSTELLE,51.027274,5.816401,,"https://www.google.com/maps/search/?api=1&query=51.027274,5.8164013"
Total PKW,HVO_TANKSTELLE,51.379395,5.984147,,"https://www.google.com/maps/search/?api=1&query=51.3793951,5.9841474"
Total Rodange Truck,HVO_TANKSTELLE,49.551721,5.829729,,"https://www.google.com/maps/search/?api=1&query=49.5517214,5.8297287"
Total Truck,HVO_TANKSTELLE,49.508722,6.097429,,"https://www.google.com/maps/search/?api=1&query=49.5087218,6.0974286"
Total Truck ( PKW ? ),HVO_TANKSTELLE,52.230859,6.211861,,"https://www.google.com/maps/search/?api=1&query=52.2308589,6.2118607"
Tramin,HVO_TANKSTELLE,51.503306,6.893970,,"https://www.google.com/maps/search/?api=1&query=51.5033064,6.8939696"
Tramin,HVO_TANKSTELLE,51.396240,6.874392,,"https://www.google.com/maps/search/?api=1&query=51.39624,6.8743923"
Tramin (vorrübergehend ausser Betrieb),HVO_TANKSTELLE,51.404561,7.065258,,"https://www.google.com/maps/search/?api=1&query=51.4045615,7.0652579"
Tramin Tankstelle,HVO_TANKSTELLE,51.046977,6.156477,,"https://www.google.com/maps/search/?api=1&query=51.046977,6.1564774"
Trans-o-Park LKW,HVO_TANKSTELLE,47.359445,9.618313,,"https://www.google.com/maps/search/?api=1&query=47.3594449,9.6183128"
TruckEasyOss / OrangeGas,HVO_TANKSTELLE,51.777274,5.538204,,"https://www.google.com/maps/search/?api=1&query=51.7772743,5.5382037"
TSS Truck / Tankpool24,HVO_TANKSTELLE,52.768112,11.689578,,"https://www.google.com/maps/search/?api=1&query=52.7681115,11.6895781"
Turmöl,HVO_TANKSTELLE,48.150181,14.178703,,"https://www.google.com/maps/search/?api=1&query=48.150181,14.1787027"
Turmöl,HVO_TANKSTELLE,47.793737,12.996096,,"https://www.google.com/maps/search/?api=1&query=47.7937373,12.9960964"
Unterer Truck (LKW und ältere PKW),HVO_TANKSTELLE,47.475323,12.018805,,"https://www.google.com/maps/search/?api=1&query=47.4753231,12.0188048"
Vendys petrol,HVO_TANKSTELLE,50.459501,14.869022,,"https://www.google.com/maps/search/?api=1&query=50.4595013,14.8690218"
Vermeulen,HVO_TANKSTELLE,52.638513,6.084094,,"https://www.google.com/maps/search/?api=1&query=52.6385128,6.0840945"
Vermeulen,HVO_TANKSTELLE,52.554346,5.942541,,"https://www.google.com/maps/search/?api=1&query=52.5543463,5.9425407"
Vissers Truck,HVO_TANKSTELLE,51.343463,6.192388,,"https://www.google.com/maps/search/?api=1&query=51.3434634,6.1923877"
Vissers Truck,HVO_TANKSTELLE,51.440184,6.049268,,"https://www.google.com/maps/search/?api=1&query=51.4401839,6.0492678"
"Vissers, Tankpool 24",HVO_TANKSTELLE,51.383315,6.148214,,"https://www.google.com/maps/search/?api=1&query=51.3833151,6.1482137"
Voegtlin-Meyer,HVO_TANKSTELLE,47.429561,8.217140,,"https://www.google.com/maps/search/?api=1&query=47.4295612,8.2171396"
Voegtlin-Meyer,HVO_TANKSTELLE,47.412483,8.159304,,"https://www.google.com/maps/search/?api=1&query=47.412483,8.1593043"
Walther,HVO_TANKSTELLE,50.885467,12.074579,,"https://www.google.com/maps/search/?api=1&query=50.8854674,12.0745792"
Walther Tankstelle,HVO_TANKSTELLE,50.054536,10.194860,,"https://www.google.com/maps/search/?api=1&query=50.0545355,10.1948597"
Walther Tankstelle,HVO_TANKSTELLE,50.317382,11.899049,,"https://www.google.com/maps/search/?api=1&query=50.3173822,11.899049"
Walther Tankstelle,HVO_TANKSTELLE,50.055408,12.181981,,"https://www.google.com/maps/search/?api=1&query=50.0554085,12.1819814"
Walther Tankstelle,HVO_TANKSTELLE,50.030116,10.221682,,"https://www.google.com/maps/search/?api=1&query=50.0301159,10.2216823"
Westerbarkei Tankstelle ( LKW / PKW ),HVO_TANKSTELLE,51.872995,8.455154,,"https://www.google.com/maps/search/?api=1&query=51.8729954,8.4551538"
Westfalen,HVO_TANKSTELLE,51.860124,7.491670,,"https://www.google.com/maps/search/?api=1&query=51.8601237,7.4916696"
Westfalen,HVO_TANKSTELLE,52.011071,7.679519,,"https://www.google.com/maps/search/?api=1&query=52.0110708,7.679519"
Westfalen,HVO_TANKSTELLE,51.487490,6.633101,,"https://www.google.com/maps/search/?api=1&query=51.4874895,6.6331013"
Westfalen,HVO_TANKSTELLE,52.892266,8.414924,,"https://www.google.com/maps/search/?api=1&query=52.8922662,8.4149245"
Westfalen,HVO_TANKSTELLE,51.656814,6.946875,,"https://www.google.com/maps/search/?api=1&query=51.6568137,6.9468746"
Westfalen,HVO_TANKSTELLE,52.073727,6.997077,,"https://www.google.com/maps/search/?api=1&query=52.0737266,6.997077"
Westfalen,HVO_TANKSTELLE,51.512433,7.123179,,"https://www.google.com/maps/search/?api=1&query=51.5124334,7.1231794"
Westfalen,HVO_TANKSTELLE,50.761312,7.027232,,"https://www.google.com/maps/search/?api=1&query=50.7613122,7.027232"
Westfalen,HVO_TANKSTELLE,51.409804,6.752486,,"https://www.google.com/maps/search/?api=1&query=51.409804,6.752486"
Westfalen,HVO_TANKSTELLE,51.892305,7.584083,,"https://www.google.com/maps/search/?api=1&query=51.8923049,7.5840831"
Westfalen,HVO_TANKSTELLE,50.376275,7.386149,,"https://www.google.com/maps/search/?api=1&query=50.3762747,7.3861494"
Westfalen,HVO_TANKSTELLE,50.869608,6.757944,,"https://www.google.com/maps/search/?api=1&query=50.8696082,6.7579437"
Westfalen,HVO_TANKSTELLE,51.977324,7.600537,,"https://www.google.com/maps/search/?api=1&query=51.9773237,7.6005369"
Westfalen,HVO_TANKSTELLE,52.060883,8.645011,,"https://www.google.com/maps/search/?api=1&query=52.0608829,8.6450111"
Westfalen,HVO_TANKSTELLE,52.159234,7.319299,,"https://www.google.com/maps/search/?api=1&query=52.1592344,7.3192988"
Westfalen,HVO_TANKSTELLE,51.535759,6.978797,,"https://www.google.com/maps/search/?api=1&query=51.5357594,6.9787972"
Westfalen,HVO_TANKSTELLE,51.468524,7.271320,,"https://www.google.com/maps/search/?api=1&query=51.4685236,7.27132"
Westfalen,HVO_TANKSTELLE,52.237718,8.163102,,"https://www.google.com/maps/search/?api=1&query=52.2377175,8.1631018"
Westfalen,HVO_TANKSTELLE,51.258100,9.447233,,"https://www.google.com/maps/search/?api=1&query=51.2580997,9.4472334"
Westfalen,HVO_TANKSTELLE,51.932009,8.608288,,"https://www.google.com/maps/search/?api=1&query=51.9320093,8.6082881"
Westfalen ( nur PKW ) Eröffnung im Laufe des Dez 2025,HVO_TANKSTELLE,52.093046,7.623604,,"https://www.google.com/maps/search/?api=1&query=52.0930458,7.6236036"
Westfalen ( PKW / LKW ),HVO_TANKSTELLE,51.706235,7.392909,,"https://www.google.com/maps/search/?api=1&query=51.7062347,7.3929087"
Westfalen ( PKW + LKW ) Eröffnung im Laufe des Dez 2025,HVO_TANKSTELLE,51.934140,7.599289,,"https://www.google.com/maps/search/?api=1&query=51.9341403,7.5992887"
Westfalen ( PKW + LKW ) Eröffnung im Laufe Dez 2025,HVO_TANKSTELLE,51.140041,9.274606,,"https://www.google.com/maps/search/?api=1&query=51.1400414,9.2746057"
Westfalen (Eröffenung im Laufe Feb 2025),HVO_TANKSTELLE,51.531702,7.205084,,"https://www.google.com/maps/search/?api=1&query=51.5317018,7.2050845"
Westfalen LKW + eingeschränkt PKW (Wichtige Info Icon klicken!),HVO_TANKSTELLE,50.980227,6.846579,,"https://www.google.com/maps/search/?api=1&query=50.9802269,6.8465795"
WEVAG Tankstelle,HVO_TANKSTELLE,51.809030,6.611039,,"https://www.google.com/maps/search/?api=1&query=51.8090301,6.611039"
Wiro,HVO_TANKSTELLE,52.601755,7.412478,,"https://www.google.com/maps/search/?api=1&query=52.601755,7.4124781"
Wiro Tankstelle,HVO_TANKSTELLE,52.884489,8.414515,,"https://www.google.com/maps/search/?api=1&query=52.8844886,8.4145147"
Wirtz Energie Tankstelle (PKW + LKW),HVO_TANKSTELLE,51.658496,7.016358,,"https://www.google.com/maps/search/?api=1&query=51.6584964,7.0163581"
Wirtz Tankstelle,HVO_TANKSTELLE,51.374319,6.427024,,"https://www.google.com/maps/search/?api=1&query=51.3743191,6.4270245"
Wölfl / AS24 Truck,HVO_TANKSTELLE,47.816938,12.980549,,"https://www.google.com/maps/search/?api=1&query=47.816938,12.9805488"
Zander Brennstoffe (PKW / LKW),HVO_TANKSTELLE,53.258889,12.230296,,"https://www.google.com/maps/search/?api=1&query=53.2588892,12.2302959"
Zieglmeier,HVO_TANKSTELLE,48.788947,11.511831,,"https://www.google.com/maps/search/?api=1&query=48.7889474,11.5118311"
Zieglmeier / Hoyer,HVO_TANKSTELLE,48.742306,11.468472,,"https://www.google.com/maps/search/?api=1&query=48.7423064,11.4684723"
Zieglmeier /Hoyer,HVO_TANKSTELLE,48.564793,11.289328,,"https://www.google.com/maps/search/?api=1&query=48.5647929,11.2893282"
Zieglmeier Tankstellen / Hoyer,HVO_TANKSTELLE,48.564094,11.253175,,"https://www.google.com/maps/search/?api=1&query=48.5640937,11.253175"
Zweigle Tankstelle,HVO_TANKSTELLE,48.826419,8.296171,,"https://www.google.com/maps/search/?api=1&query=48.8264185,8.2961713"